restaurantName,City,Region,latitude,longitude
L'Ancora della Tortuga,Monterosso al Mare,Liguria,44.1465216,9.6555583
Ristorante Alpes & La FuGa,Sarentino,Trentino-Alto Adige/Südtirol,46.69535665,11.387392520694535
Villa De Winckels,Tregnago,Veneto,45.5139247,11.1656601
Italia,Quarona,Piemonte,45.757869,8.265721
Zafferano,Città della Pieve,Umbria,42.9527338,12.004326
Il Refettorio,Conca dei Marini,Campania,40.6176092,14.5725004
Albergaccio di Castellina,Castellina in Chianti,Toscana,43.4691786,11.2872857
Kleine Flamme,Vipiteno,Trentino-Alto Adige/Südtirol,46.8963235,11.4319398
Le Petit Bellevue,Cogne,Valle d'Aosta / Vallée d'Aoste,45.6087425,7.3560226
Osteria Frangipane,Trani,Puglia,41.275088,16.4162585
Al Bagatto,Trieste,Friuli-Venezia Giulia,45.6496485,13.7772781
Sine by Di Pinto,Milan,Lombardia,45.4641943,9.1896346
Gallery Bistrot Contemporaneo,Troia,Puglia,41.363128,15.312347
Osteria Manzoni,Barzago,Lombardia,45.755479,9.314244
Le Rune,Genoa,Liguria,44.40726,8.9338624
Finger's Garden,Milan,Lombardia,45.4641943,9.1896346
Antichi Sapori,Montegrosso,Puglia,41.1737463,16.1401332
Trippini,Civitella del Lago,Umbria,42.7119732,12.2811913
Da Marino al St Remy,Cagliari,Sardigna/Sardegna,39.2171994,9.113311
Cravero - Osteria Contemporanea,Caltignaga,Piemonte,45.5169755,8.587782
Armani/Ristorante,Milan,Lombardia,45.4641943,9.1896346
Osteria da Afro,Spilimbergo,Friuli-Venezia Giulia,46.1113355,12.9016287
All'Oro,Rome,Lazio,41.8933203,12.4829321
Trattoria di Campagna,Sarre,Valle d'Aosta / Vallée d'Aoste,45.7167983,7.2591539
La Pignata,Ariano Irpino,Campania,41.1526668,15.0885633
Dongiò,Milan,Lombardia,45.4641943,9.1896346
Ai Cadelach,Revine,Veneto,46.0000268,12.2534954
Mec Restaurant,Palermo,Sicilia,38.1112268,13.3524434
Luminist Cafè Bistrot,Naples,Campania,40.8358846,14.2487679
Gambero Rosso,Marina di Gioiosa Ionica,Calabria,38.3006628,16.3303619
Li Galli,Positano,Campania,40.6286581,14.4854955
"Osteria a ""Le Due Spade""",Trento,Trentino-Alto Adige/Südtirol,46.1029536,11.12974249416882
Risorgimento,Sirmione,Lombardia,45.4688494,10.6078237
El Gato,Chioggia,Veneto,45.218894,12.2785805
Osteria Storica Morelli,Pergine Valsugana,Trentino-Alto Adige/Südtirol,46.0605291,11.2406747
Corte Federiciana,Apricena,Puglia,41.783938,15.443744
L'Angolino da Filippo,Marina di San Vito,Abruzzo,42.3083606,14.445296
Babette,Albenga,Liguria,44.0492503,8.2131239
Kro,Ponte di Legno,Lombardia,46.258603,10.508662
Cracco in Galleria,Milan,Lombardia,45.4641943,9.1896346
Dalla Libera,Sernaglia della Battaglia,Veneto,45.8747312,12.1331619
N'uovo Vino e Cucina,Sutri,Lazio,42.247023,12.215067
Anastasia,Civitanova Marche,Marche,43.3055233,13.7229297
Taverna del Castello,Torrechiara,Emilia-Romagna,44.656766,10.2781141
Osteria Didù,Imperia,Liguria,43.95837525,7.866742714674276
La Tradizione - Cucina Casalinga,Minervino Murge,Puglia,41.0850517,16.0777763
Trattoria Pomposa - Al Re gras,Modena,Emilia-Romagna,44.5384728,10.935960870530739
Pentole e Provette,Fasano,Puglia,40.834432,17.358399
Osteria dello Strecciolo,Robbiate,Lombardia,45.6911341,9.4413225
Soho,Genoa,Liguria,44.40726,8.9338624
All'Osteria Bottega,Bologna,Emilia-Romagna,44.4938203,11.3426327
Urubamba,Naples,Campania,40.8358846,14.2487679
Kanton Restaurant,Capriate San Gervasio,Lombardia,45.612578,9.528752
La Bottega del 30,Castelnuovo Berardenga,Toscana,43.3455237,11.5018883
Marotta,Squille,Campania,41.1558165,14.4327989
Radici,Castel Giorgio,Umbria,42.7078943,11.9793909
De' Minimi,Tropea,Calabria,38.6752674,15.8948507
aede dining & wines,Rome,Lazio,41.8933203,12.4829321
Luigi Lepore,Lamezia Terme,Calabria,38.9645069,16.3021451
DA_MÓ,Matera,Basilicata,40.447641899999994,16.47357384028852
San Martino 26,San Gimignano,Toscana,43.4677993,11.0432115
Spinechile,Schio,Veneto,45.7113511,11.3553593
La Preséf,Mantello,Lombardia,46.1522359,9.4885023
Bistrot de Venise,Venice,Veneto,45.4371908,12.3345898
Vögele,Bolzano,Trentino-Alto Adige/Südtirol,46.655945450000004,11.23021287087526
Villa Arcadio,Salò,Lombardia,45.6056775,10.520069
Impronta,Bassano del Grappa,Veneto,45.7669109,11.7343469
L'Angolo d'Abruzzo,Carsoli,Abruzzo,42.098927,13.084888
Antica Trattoria Gianna,Recorfano,Lombardia,45.1036904,10.3451948
Locanda Nelli,Pietra Ligure,Liguria,44.152931,8.286552
Atman,Lamporecchio,Toscana,43.8163799,10.896283
All'Olivo,Lucca,Toscana,44.017763900000006,10.454430026192636
L'Asinello,Castelnuovo Berardenga,Toscana,43.3455237,11.5018883
La Fermata,Spinetta Marengo,Piemonte,44.8861753,8.6829041
La Locanda del Notaio,Pellio Intelvi,Lombardia,45.9800639,9.0654684
San Domenico,Pizzo Calabro,Calabria,38.7356749,16.1622949
Acciuga,Rome,Lazio,41.8933203,12.4829321
Futura Osteria,Monteriggioni,Toscana,43.3899772,11.2235936
Carter Oblio,Rome,Lazio,41.8933203,12.4829321
Terrazza Bartolini,Milano Marittima,Emilia-Romagna,44.2774759,12.3481763
Trattoria al Parco,Buttrio,Friuli-Venezia Giulia,46.010421,13.333831
Stefenelli Desk,Aosta,Valle d'Aosta / Vallée d'Aoste,45.7370885,7.3196649
Lofficina,Sirolo,Marche,43.5246892,13.6178462
Laite,Sappada,Friuli-Venezia Giulia,46.571795050000006,12.69543929886029
Quintogusto,Savona,Liguria,44.2334238,8.252572737021062
Filo,Lezzeno,Lombardia,45.9450751,9.1941117
Oltre.,Bologna,Emilia-Romagna,44.4938203,11.3426327
Maeba Restaurant,Ariano Irpino,Campania,41.1526668,15.0885633
La Ferrata,Pordenone,Friuli-Venezia Giulia,45.9562503,12.6597197
Mirabelle,Rome,Lazio,41.8933203,12.4829321
All'Enoteca,Canale,Piemonte,44.7970224,7.9911864
Horto,Milan,Lombardia,45.4641943,9.1896346
Osteria Bartolini,Milano Marittima,Emilia-Romagna,44.2774759,12.3481763
Il Verso del Ghiottone,Dogliani,Piemonte,44.5307822,7.9472329
Sale Grosso,Bologna,Emilia-Romagna,44.4938203,11.3426327
QB DuePuntoZero,Salò,Lombardia,45.6056775,10.520069
Agli Amici,Godia,Friuli-Venezia Giulia,46.1015985,13.2643678
Svevia,Termoli,Molise,41.9983273,14.9939366
La Loggia Bistrò,Verona,Veneto,45.442497700000004,10.985737689444763
Al Metrò,San Salvo Marina,Abruzzo,42.0710852,14.7684349
Quattro Sensi,Brufa,Umbria,43.0591647,12.4746436
Il Ciabot,Roletto,Piemonte,44.9246915,7.3313239
Boivin,Levico Terme,Trentino-Alto Adige/Südtirol,46.0091259,11.3017774
Federico II,Termoli,Molise,41.9983273,14.9939366
Il Conte Matto,Trequanda,Toscana,43.1889394,11.6673852
LeoneFelice Vista Lago,Erbusco,Lombardia,45.5984995,9.9722164
Delicato,Contigliano,Lazio,42.4093586,12.7665388
Casa Mazzucchelli,Sasso Marconi,Emilia-Romagna,44.3996319,11.247554
Osteria del Gallo e della Volpe,Ospedaletto d'Alpinolo,Campania,40.9386714,14.7439343
20 Posti,Empoli,Toscana,43.7194884,10.9458556
Parizzi,Parma,Emilia-Romagna,44.6952006,10.097986896904466
Sa Domu Sarda,Cagliari,Sardigna/Sardegna,39.2171994,9.113311
Palazzo Petrucci,Naples,Campania,40.8358846,14.2487679
Maso Palù,Brentonico,Trentino-Alto Adige/Südtirol,45.8187739,10.9560131
La Capanna di Eraclio,Codigoro,Emilia-Romagna,44.831581,12.109524
Marcelin,Montà,Piemonte,44.813644,7.957233
Viva il Bistrot,Noto,Sicilia,36.8908864,15.0706454
Vescovado,Noli,Liguria,44.2058832,8.416419
Da Giocondo,Rivisondoli,Abruzzo,41.8708957,14.0674295
Sustanza,Naples,Campania,40.8358846,14.2487679
Crotasc,Mese,Lombardia,46.3052737,9.3803256
La Limonaia,Turin,Piemonte,45.0677551,7.6824892
Teresita by Giardino di Mari,Viareggio,Toscana,43.8672392,10.2506055
Il Ristorante di Guido da Costigliole,Santo Stefano Belbo,Piemonte,44.7077401,8.2307306
La Taverna di Bacco,Nettuno,Lazio,41.4575382,12.661425
Felter alle Rose,Salò,Lombardia,45.6056775,10.520069
Colonne,Santa Maria del Monte,Lombardia,45.8604041,8.7926234
Tanzer,Issengo,Trentino-Alto Adige/Südtirol,46.8160801,11.8625462
Il Barolino,Carpi,Emilia-Romagna,44.7835699,10.8854523
Osteria da Fiore,Venice,Veneto,45.4371908,12.3345898
Nicolin,Lecco,Lombardia,45.9005485,9.41202482143963
Osteria Europa,Asiago,Veneto,45.8753771,11.5106998
Veritas,Naples,Campania,40.8358846,14.2487679
Salamensa,Montichiari,Lombardia,45.415181,10.390675
Trattoria al Cacciatore - La Subida,Cormons,Friuli-Venezia Giulia,45.957791,13.4709541
Alpenroyal Gourmet,Selva di Val Gardena,Trentino-Alto Adige/Südtirol,46.5551877,11.7600992
Zunica 1880,Civitella del Tronto,Abruzzo,42.773446,13.672291
La Barca,Marina di Pulsano,Puglia,40.3530128,17.365016
Pipero Roma,Rome,Lazio,41.8933203,12.4829321
Casa Vissani,Baschi,Umbria,42.6702835,12.2161353
Al Volt,Riva del Garda,Trentino-Alto Adige/Südtirol,45.8847708,10.8396942
Maragoncello,Montichiari,Lombardia,45.415181,10.390675
Lio Pellegrini,Bergamo,Lombardia,45.756655699999996,9.754219200862249
Terramira,Capolona,Toscana,43.563998,11.8587865
Il Sottomarino,Follonica,Toscana,42.926326,10.761625
Pepenero,San Miniato,Toscana,43.6797502,10.8500949
Fiamma Cremisi,Calvisano,Lombardia,45.3480525,10.345921
La Terrazza,Rome,Lazio,41.8933203,12.4829321
Osteria dai Mazzeri,Follina,Veneto,45.9530729,12.1181368
Ancòra,Cesenatico,Emilia-Romagna,44.1999283,12.3969692
Enrico Bartolini al Mudec,Milan,Lombardia,45.4641943,9.1896346
Condividere,Turin,Piemonte,45.0677551,7.6824892
La Canonica,Verona,Veneto,45.442497700000004,10.985737689444763
Maso Burba,Commezzadura,Trentino-Alto Adige/Südtirol,46.31299,10.8328315
I Sette Consoli,Orvieto,Umbria,42.7186152,12.1087907
Terrazza Tiberio,Capri,Campania,40.5488429,14.228370814497762
Magnagallo,Campogalliano,Emilia-Romagna,44.6905118,10.8407336
Morelli,Milan,Lombardia,45.4641943,9.1896346
Balin Sestri Levante,Sestri Levante,Liguria,44.2714526,9.3958627
Bar à Fromage,Cogne,Valle d'Aosta / Vallée d'Aoste,45.6087425,7.3560226
Frosio,Almè,Lombardia,45.7370097,9.614785
Boccondivino,Bra,Piemonte,44.6976778,7.8542707
Amo,Venice,Veneto,45.4371908,12.3345898
Osteria Madonnetta,Marostica,Veneto,45.7453924,11.6568938
Locanda dei Salinari,Cervia,Emilia-Romagna,44.2609836,12.3495462
Apollinare,Spoleto,Umbria,42.7342971,12.7382035
Villa Maiella,Guardiagrele,Abruzzo,42.1954758,14.2197122
Rosita,Finale Ligure,Liguria,44.1689049,8.3436524
Da Lucio,Rimini,Emilia-Romagna,43.946543250000005,12.630749019254939
Dodici Fontane,Linguaglossa,Sicilia,37.8409138,15.1437161
In Viaggio - Claudio Melis,Merano,Trentino-Alto Adige/Südtirol,46.6695547,11.1594185
San Quintino Resort,Busca,Piemonte,44.518132,7.474328
Molin Vecio,Caldogno,Veneto,45.6118362,11.5075805
Stube Ladina,Arabba,Veneto,46.4971763,11.8740902
Ma.Ri.Na.,Olgiate Olona,Lombardia,45.6309999,8.8898408
Fracia,Teglio,Lombardia,46.172675,10.0641264
Lazaroun,Santarcangelo di Romagna,Emilia-Romagna,44.0634029,12.4467143
Zia,Rome,Lazio,41.8933203,12.4829321
Torre del Saracino,Vico Equense,Campania,40.6623446,14.4264683
Boccon DiVino,Montalcino,Toscana,43.0575578,11.4902818
Vino Buono,Grumello del Monte,Lombardia,45.637181,9.876759
Osteria Mercato,Stresa,Piemonte,45.8837277,8.5390268
Gnocchetto,Tavernerio,Lombardia,45.8024262,9.1464359
Il Saturnino,Forio,Campania,40.7368416,13.8581354
Antica Locanda al Cervo - Landgasthof zum Hirschen,San Genesio Atesino,Trentino-Alto Adige/Südtirol,46.5350348,11.3313839
Osteria La Torre,Cherasco,Piemonte,44.6522191,7.8580149
Regio Patio,Garda,Veneto,45.5756512,10.7085298
Il Molo,San Leone,Sicilia,37.2660916,13.5820424
50 Kalò,Naples,Campania,40.8358846,14.2487679
Corte Sconta,Venice,Veneto,45.4371908,12.3345898
Tuorlo,Turin,Piemonte,45.0677551,7.6824892
La Taverna di Fra' Fiusch,Revigliasco,Piemonte,45.0187223,7.735651
Don Alfonso 1890 San Barbato,Lavello,Basilicata,41.045625,15.790762
Il Cedro,Moggiona,Toscana,43.782191,11.7925573
Da Miky,Monterosso al Mare,Liguria,44.1465216,9.6555583
Da Guido,Jesolo,Veneto,45.5367094,12.6383337
Particolare di Siena,Sienna,Toscana,43.167205949999996,11.467561040475552
Dry Aged,Milan,Lombardia,45.4641943,9.1896346
Iris Ristorante,Verona,Veneto,45.442497700000004,10.985737689444763
L'Acciuga,Perugia,Umbria,43.1070321,12.402996209906487
Locanda del Marinaio,Cefalu,Sicilia,38.034957,14.0244562
La Speranzina Restaurant & Relais,Sirmione,Lombardia,45.4688494,10.6078237
Innesti,Pergine Valsugana,Trentino-Alto Adige/Südtirol,46.0605291,11.2406747
Sa Mandra,Alghero,Sardigna/Sardegna,40.5587291,8.3153206
Il Ritrovo d'Abruzzo,Civitella Casanova,Abruzzo,42.3646066,13.8891259
Taverna dello Spuntino,Grottaferrata,Lazio,41.788616,12.6667408
Meta Ristorante,Celle Ligure,Liguria,44.3463235,8.5444342
Angiolina,Pisciotta,Campania,40.108902,15.234561
Trippi,Sondrio,Lombardia,46.32336235,10.258413671017703
Johannesstube,Nova Levante,Trentino-Alto Adige/Südtirol,46.4302623,11.5389153
Ortica,Pieve Ligure,Liguria,44.3762485,9.0861613
Cortile Pepe,Cefalu,Sicilia,38.034957,14.0244562
O Me O Il Mare,Gragnano,Campania,40.6899999,14.5210654
Trattoria del Vicolo,Lipari,Sicilia,38.4681846,14.9547202
Paca,Prato,Toscana,43.935718050000006,11.09414726770089
LPV Ristorante & Bistrot,Venice,Veneto,45.4371908,12.3345898
La Kuccagna,Dovera,Lombardia,45.3651533,9.5416879
Roma,Montoggio,Liguria,44.5154356,9.0442742
Mesadoria,Valledoria,Sardigna/Sardegna,40.928283,8.8245837
La Bul,Bari,Puglia,41.1257843,16.8620293
Novo Osteria,Borgonovo Val Tidone,Emilia-Romagna,45.014362,9.443461
Votavota,Marina di Ragusa,Sicilia,36.7839507,14.5544944
Da Manuela,Isola Sant'Antonio,Piemonte,45.0305007,8.8487341
La Valle,Trofarello,Piemonte,44.983646,7.745225
La Campanara,Galeata,Emilia-Romagna,43.9966629,11.9120062
Piazza Duomo,Alba,Piemonte,44.7007236,8.0357786
Dispensa Franciacorta,Torbiato,Lombardia,45.6115298,9.9844199
Vintage 1997,Turin,Piemonte,45.0677551,7.6824892
Café Les Paillotes,Pescara,Abruzzo,42.3102619,13.95759010584892
Hosteria Grappolo d'Oro,Rome,Lazio,41.8933203,12.4829321
Darmagi,Mercenasco,Piemonte,45.3571822,7.8823593
Bluh Furore,Furore,Campania,40.618792,14.5533482
La Ciambella,Rome,Lazio,41.8933203,12.4829321
Osteria Acquarol,San Michele,Liguria,43.8797713,7.5346432
Il Trillo,Massa,Toscana,44.0359323,10.1395519
Il Ristorantino - Da Dino,Anzola dell'Emilia,Emilia-Romagna,44.5466843,11.1933259
Zanze XVI,Venice,Veneto,45.4371908,12.3345898
La Barca,Rho,Lombardia,45.528878,9.04156
Osteria Platzegg,San Michele,Liguria,43.8797713,7.5346432
Bebop,Palermo,Sicilia,38.1112268,13.3524434
Trattoria Lanzagallo,Gaibana,Emilia-Romagna,44.7524551,11.6556009
La Pineta,Marina di Bibbona,Toscana,43.2440304,10.5327311
Roof Garden,Bergamo,Lombardia,45.756655699999996,9.754219200862249
Marco Bottega Ristorante,Genazzano,Lazio,41.8296733,12.9722464
Locanda Toscano,Pizzo,Calabria,38.7356749,16.1622949
I 5 Campanili,Busto Arsizio,Lombardia,45.611932,8.8518269
Mammaròssa,Avezzano,Abruzzo,42.0347963,13.4265048
Riva,Ponte dell'Olio,Emilia-Romagna,44.867361,9.642268
Specus,Valmontone,Lazio,41.7769071,12.9177029
Lo Scalco Grasso,Mantua,Lombardia,45.1692628,10.670836515673878
Il Casolare dei Segreti,Treia,Marche,43.310556,13.311475
Etra,Genoa,Liguria,44.40726,8.9338624
Qualia,Cefalu,Sicilia,38.034957,14.0244562
Locanda delle Tre Chiavi,Isera,Trentino-Alto Adige/Südtirol,45.8852695,11.0093106
Bistrot Donatella,Oviglio,Piemonte,44.86125,8.487743
Luisl Stube,Algund,Trentino-Alto Adige/Südtirol,46.6825194,11.1230691
Quellenhof Gourmetstube 1897,Saint Martin in Passeier,Trentino-Alto Adige/Südtirol,46.6976,11.2508
Antica Cucina 1983,Barletta,Puglia,41.3214976,16.2868696
Osteria Arborina,La Morra,Piemonte,44.6384797,7.9325818
Posta,Sant'Omobono Terme,Lombardia,45.8116872,9.5359629
L'Acino,Turin,Piemonte,45.0677551,7.6824892
Rossellinis,Ravello,Campania,40.6496643,14.6122753
Cascina Lautier,Chieri,Piemonte,45.0138842,7.8223544
Arnolfo,Colle di Val d'Elsa,Toscana,43.4226455,11.126394
La Capinera,Taormina,Sicilia,37.8512218,15.2830191
La Tavola,Laveno,Lombardia,45.9118991,8.61896
Locanda '800,Negrar,Veneto,45.5296706,10.9400217
Contrada,Castelnuovo Berardenga,Toscana,43.3455237,11.5018883
Trattoria Antichi Sapori,Gaione,Emilia-Romagna,44.7587302,10.2881934
Locanda Mammì,Agnone,Molise,41.8095612,14.3770463
Zero Milano,Milan,Lombardia,45.4641943,9.1896346
Osteria del Benedet,Delebio,Lombardia,46.13609,9.46064
Il Turacciolo,Andria,Puglia,41.2275731,16.2954806
Osteria L'Orciaia,Montebenichi,Toscana,43.405625,11.5443441
L'Argaj,Castiglione Falletto,Piemonte,44.6236987,7.9774527
Quintilio,Altare,Liguria,44.3359819,8.3399306
Koinè,Legnano,Lombardia,45.5946464,8.9181625
La Caravella dal 1959,Amalfi,Campania,40.63367,14.6026095
Serpillo,Bevagna,Umbria,42.9340752,12.6091209
Secondo Tempo,Termini Imerese,Sicilia,37.983651,13.695554
MARdiVINO,Treviso,Veneto,45.806691349999994,12.206315763116372
Enoclub,Alba,Piemonte,44.7007236,8.0357786
I Castagni,Vigevano,Lombardia,45.3170942,8.858603
Locanda San Lorenzo,Puos d'Alpago,Veneto,46.1410937,12.3623258
Il Patio,Pollone,Piemonte,45.579763,8.005919
Le Macine,Vittorio Veneto,Veneto,45.9896648,12.2964361
Locanda Sant'Uffizio Enrico Bartolini,Cioccaro,Piemonte,45.0256209,8.2710131
sui generis.,Saronno,Lombardia,45.6256764,9.0373283
Antica Locanda del Villoresi,Nerviano,Lombardia,45.5536472,8.970719
Ceresio 7,Milan,Lombardia,45.4641943,9.1896346
Vini da Gigio,Venice,Veneto,45.4371908,12.3345898
Il Tiglio,Montemonaco,Marche,42.8991551,13.3268587
J Contemporary Japanese Restaurant,Naples,Campania,40.8358846,14.2487679
Famiglia Rana,Oppeano,Veneto,45.3062139,11.1823399
iPalici,Viagrande,Sicilia,37.6101657,15.0967587
Serendepico,Capannori,Toscana,43.8420391,10.5735254
Crocifisso,Noto,Sicilia,36.8908864,15.0706454
Il Labirinto,Brescia,Lombardia,45.77958045,10.4258729694612
Palazzo Branciforte,Palermo,Sicilia,38.1112268,13.3524434
Osteria Mondo d'Oro,Verona,Veneto,45.442497700000004,10.985737689444763
Il Bavaglino,Terrasini,Sicilia,38.1528221,13.0821216
Le Due Lanterne,Nizza Monferrato,Piemonte,44.7733095,8.353709
Alici,Amalfi,Campania,40.63367,14.6026095
Taverna da Ciacco,San Quirico d'Orcia,Toscana,43.0603953,11.603645
Hostaria alla Tavernetta,Udine,Friuli-Venezia Giulia,46.0634632,13.2358377
La Chioccia d'Oro,Vallo della Lucania,Campania,40.229704,15.26576
Il Piastrino,Pennabilli,Emilia-Romagna,43.8170539,12.265276
Camana Veglia,Livigno,Lombardia,46.5381734,10.1359928
Al Camin,Cortina d'Ampezzo,Veneto,46.5383332,12.1373506
Nove,Alassio,Liguria,44.0080109,8.1730265
La Fortuna,Campagnola Cremasca,Lombardia,45.398474,9.669459
Osteria alla Chiesa,Monfumo,Veneto,45.8303733,11.9211182
La Masseria,Modena,Emilia-Romagna,44.5384728,10.935960870530739
I Tri Siochètt,Parma,Emilia-Romagna,44.6952006,10.097986896904466
Gassenwirt,Kiens,Trentino-Alto Adige/Südtirol,46.808627,11.8398396
Osteria dei Segreti,Appignano,Marche,43.3637323,13.3465961
Oste Scuro - Finsterwirt,Brixen,Trentino-Alto Adige/Südtirol,46.716413,11.657792
Azotea,Turin,Piemonte,45.0677551,7.6824892
Kirchsteiger,Foiana,Trentino-Alto Adige/Südtirol,46.5889585,11.1471266
Bacco,Barletta,Puglia,41.3214976,16.2868696
Crub,Cava de' Tirreni,Campania,40.7004616,14.7062633
Dattilo,Strongoli,Calabria,39.2639586,17.0520257
I Savi,Scorzè,Veneto,45.5713541,12.108383
Glicine,Amalfi,Campania,40.63367,14.6026095
Duomo,Alessandria,Piemonte,44.83495335,8.745030418605868
Gerani,Sant'Antonio Abate,Campania,40.723709,14.546538
Buriani dal 1967,Pieve di Cento,Emilia-Romagna,44.7132091,11.3065981
Trattoria dall'Antonia,Mira,Veneto,45.41199655,12.194210690028111
Castel Toblino,Castel Toblino,Trentino-Alto Adige/Südtirol,46.05465585,10.96731673968287
Nida,Lucca,Toscana,44.017763900000006,10.454430026192636
Lo Stornello,Stresa,Piemonte,45.8837277,8.5390268
Da Attilio,Naples,Campania,40.8358846,14.2487679
La Meridiana,Domodossola,Piemonte,46.1152451,8.2920459
Re Maurì,Salerno,Campania,40.419441649999996,15.310608468834516
La Saletta,Alghero,Sardigna/Sardegna,40.5587291,8.3153206
Cannavacciuolo Vineyard,Casanova di Terricciola,Toscana,43.5445384,10.6861074
Acanto,Milan,Lombardia,45.4641943,9.1896346
Abraxas Osteria,Pozzuoli,Campania,40.822643,14.1219109
Vecchia Malcesine,Malcesine,Veneto,45.7643442,10.8100598
Mater1apr1ma,Pontinia,Lazio,41.4084557,13.0443366
La Fratanza,Nocera Superiore,Campania,40.7415603,14.6715039
Casa Fantini/Lake Time,Pella,Piemonte,45.8016249,8.3847792
Olio,Origgio,Lombardia,45.5976933,9.0180613
Buca di Sant'Antonio,Lucca,Toscana,44.017763900000006,10.454430026192636
L'Antico Giardino,Ravalle,Emilia-Romagna,44.9280691,11.5105052
Saporium Firenze,Florence,Toscana,43.7697955,11.2556404
Cielo,Ostuni,Puglia,40.727631,17.576406
Il Giardino del Gusto,Ventimiglia,Liguria,43.7917623,7.6033131
Il Sale,San Vincenzo,Toscana,43.1006951,10.5387914
Suscettibile Salerno,Salerno,Campania,40.419441649999996,15.310608468834516
Trattoria da Probo,Bagnolo in Piano,Emilia-Romagna,44.762967,10.673293
Baia del Silenzio,Sestri Levante,Liguria,44.2714526,9.3958627
L'Acquario,Castiglione del Lago,Umbria,43.127155,12.0452096
Il Sanlorenzo,Rome,Lazio,41.8933203,12.4829321
Coria,Catania,Sicilia,37.5023612,15.0873718
Musciora,Alghero,Sardigna/Sardegna,40.5587291,8.3153206
Pashà,Conversano,Puglia,40.9685142,17.1150442
Le Grenier,Saint-Vincent,Valle d'Aosta / Vallée d'Aoste,45.7503861,7.647884
Antico Albergo,Limito,Lombardia,45.4826245,9.3271701
La Pergola,Rome,Lazio,41.8933203,12.4829321
Antico Morer,Treviso,Veneto,45.806691349999994,12.206315763116372
Caffè delle Rose Bistrot,Verbania,Piemonte,45.9344082,8.5580062
Cestello Firenze,Florence,Toscana,43.7697955,11.2556404
Osteria Numero Sette,Rastignano,Emilia-Romagna,44.4432645,11.3574545
Alla Locanda,Canazei,Trentino-Alto Adige/Südtirol,46.4768809,11.7710748
Le Calandre,Rubano,Veneto,45.4287288,11.7882736
Il Marin,Genoa,Liguria,44.40726,8.9338624
Il Visibilio,Castelnuovo Berardenga,Toscana,43.3455237,11.5018883
Vite,Lancenigo,Veneto,45.7135258,12.2734742
Osteria Vecchio Borgo,Cuneo,Piemonte,44.45807035,7.558136691151624
La Casina,Drena,Trentino-Alto Adige/Südtirol,45.969299,10.944477
Soprattutto,Santa Maria di Sala,Veneto,45.5050934,12.0339862
Antiche Mura,Riva del Garda,Trentino-Alto Adige/Südtirol,45.8847708,10.8396942
Trattoria Rigoletto,Brescia,Lombardia,45.77958045,10.4258729694612
Glam Enrico Bartolini,Venice,Veneto,45.4371908,12.3345898
Pernambucco,Albenga,Liguria,44.0492503,8.2131239
Osteria Il Cappello,Trento,Trentino-Alto Adige/Südtirol,46.1029536,11.12974249416882
Antica Osteria Il Monte Rosso,Suna,Piemonte,45.9312024,8.5409253
La Magnolia,Forte dei Marmi,Toscana,43.9595891,10.1699392
MikEle,Maranello,Emilia-Romagna,44.5255217,10.8663607
Tosca,Casole d'Elsa,Toscana,43.3404198,11.043016
Porta di Basso,Peschici,Puglia,41.9469256,16.0147884
Umberto De Martino,San Paolo d'Argon,Lombardia,45.6885572,9.8040661
Due Pini,Madonna di Campiglio,Trentino-Alto Adige/Südtirol,46.2269942,10.8270157
Casa Perrotta Restaurant,Cernobbio,Lombardia,45.8413945,9.0759048
Filippino,Lipari,Sicilia,38.4681846,14.9547202
Corsaro Nero,Marina di Arbus,Sardigna/Sardegna,39.6190572,8.50818721459197
Mater,Moggiona,Toscana,43.782191,11.7925573
Osteria Contemporanea,Gattinara,Piemonte,45.6142424,8.3711382
Sadler,Milan,Lombardia,45.4641943,9.1896346
Miil,Cermes,Trentino-Alto Adige/Südtirol,46.6346188,11.146564
Al Carroponte,Bergamo,Lombardia,45.756655699999996,9.754219200862249
Selvatico,Rivanazzano Terme,Lombardia,44.9307667,9.014159
Punta Lena,Stromboli,Sicilia,38.7930274,15.2108512
Crotto Valtellina,Malnate,Lombardia,45.8000916,8.8781675
Il Palagio,Florence,Toscana,43.7697955,11.2556404
Enoteca di Buttrio,Buttrio,Friuli-Venezia Giulia,46.010421,13.333831
Da Noemi,Ferrara,Emilia-Romagna,44.766764249999994,11.827938995640167
I Pupi,Bagheria,Sicilia,38.079351,13.509349
Le Colonne,Santa Maria Maggiore,Lazio,41.89762675,12.498470031880899
Marina del Nettuno,Messina,Sicilia,38.1937571,15.5542082
Parma Rotta,Parma,Emilia-Romagna,44.6952006,10.097986896904466
Riso Amaro,Fondi,Lazio,41.3572854,13.430031
Agriturismo Ferdy,Lenna,Lombardia,45.9439828,9.6786963
Namo Ristobottega,Tarquinia,Lazio,42.2532394,11.7591747
Gainn,Rome,Lazio,41.8933203,12.4829321
Da Gerry,Monfumo,Veneto,45.8303733,11.9211182
Līmū,Bagheria,Sicilia,38.079351,13.509349
L'Osteria del Castellazzo,Salsomaggiore Terme,Emilia-Romagna,44.814762,9.979576
Osteria Bartolini,Bologna,Emilia-Romagna,44.4938203,11.3426327
Abba,Milan,Lombardia,45.4641943,9.1896346
La Botte,Stresa,Piemonte,45.8837277,8.5390268
Da Andrea,Marina di Cecina,Toscana,43.2995802,10.4940069
Abocar Due Cucine,Rimini,Emilia-Romagna,43.946543250000005,12.630749019254939
Locanda Viola,Pagazzano,Lombardia,45.534277,9.671157
Marc Lanteri,Castagnito d'Alba,Piemonte,44.76025808046911,8.014112416201144
Il Ristorante - Niko Romito,Rome,Lazio,41.8933203,12.4829321
Milano,Pallanza,Piemonte,45.9230169,8.5497586
Nello,San Casciano in Val di Pesa,Toscana,43.6569596,11.1856679
Atelier,Domodossola,Piemonte,46.1152451,8.2920459
Villa Aurora,Soiano del Lago,Lombardia,45.527784,10.512675
La Tavola Rossa di Vincenzo Guarino,Sellano,Umbria,42.8883883,12.9262871
Soltojo,Caiolo,Lombardia,46.149994,9.814548
Il Pagliaccio,Rome,Lazio,41.8933203,12.4829321
San Tommaso 10,Turin,Piemonte,45.0677551,7.6824892
Rosso di Sera,Castelletto sopra Ticino,Piemonte,45.7121687,8.6429769
La Locanda Gesù Vecchio,Naples,Campania,40.8358846,14.2487679
Scuderie Sabaude,Pollenzo,Piemonte,44.6828984,7.8948821
Hosteria del Platano,Varenna,Lombardia,46.0099785,9.2831593
Indiniò,Raveo,Friuli-Venezia Giulia,46.434428,12.871113
Buscone,Varzi,Lombardia,44.8235397,9.1969039
La Locanda di Pietracupa,San Donato in Poggio,Toscana,43.5353195,11.2342716
Hostaria Viola,Castiglione delle Stiviere,Lombardia,45.3896766,10.4888745
"Da Flavio e Fabrizio ""Al Teatro""",Mirano,Veneto,45.4927695,12.1098768
Ba Restaurant,Milan,Lombardia,45.4641943,9.1896346
Altatto Bistrot,Milan,Lombardia,45.4641943,9.1896346
San Martino,Treviglio,Lombardia,45.5217245,9.5931485
Senso Alfio Ghezzi Lake Garda,Limone sul Garda,Lombardia,45.8141194,10.7915786
Locanda 4 Cuochi,Verona,Veneto,45.442497700000004,10.985737689444763
L'Ostì,Corvara in Badia,Trentino-Alto Adige/Südtirol,46.5495743,11.8740339
La Torre,Spilimbergo,Friuli-Venezia Giulia,46.1113355,12.9016287
Chichibio,Roccaraso,Abruzzo,41.8502606,14.0782574
Beccaccino,Sorico,Lombardia,46.1722601,9.3799475
Il Marchese - Osteria Mercato Liquori,Milan,Lombardia,45.4641943,9.1896346
Tola Rasa,Padua,Veneto,45.4077172,11.8734455
PS Ristorante,Cerreto Guidi,Toscana,43.7589215,10.879013
Rada Rooftop,Positano,Campania,40.6286581,14.4854955
Maré,Cesenatico,Emilia-Romagna,44.1999283,12.3969692
Villa Crespi,Orta San Giulio,Piemonte,45.7980814,8.406951
Ape Vino e Cucina,Alba,Piemonte,44.7007236,8.0357786
Zur Rose,San Michele,Liguria,43.8797713,7.5346432
Arca,San Benedetto del Tronto,Marche,42.9525328,13.8807144
La Primula,San Quirino,Friuli-Venezia Giulia,46.0361673,12.6800395
Trattoria contemporanea,Lomazzo,Lombardia,45.6984514,9.0363529
Osaka,Milan,Lombardia,45.4641943,9.1896346
La Serra,Positano,Campania,40.6286581,14.4854955
Antica Filanda,Capri Leone,Sicilia,38.0858737,14.7301178
Filia Ristorante,Verona,Veneto,45.442497700000004,10.985737689444763
Le Cementine,Roncade,Veneto,45.6279075,12.3747797
Bianca sul Lago,Oggiono,Lombardia,45.79188,9.346745
daní maison,Ischia,Campania,40.734205,13.947125
Villa Pizzini,Stresa,Piemonte,45.8837277,8.5390268
Antica Trattoria Giovanelli,Sarturano,Emilia-Romagna,44.9745158,9.5091518
Café Cracco,Milan,Lombardia,45.4641943,9.1896346
Osteria Veglio,La Morra,Piemonte,44.6384797,7.9325818
Il Cascinalenuovo,Isola d'Asti,Piemonte,44.8293671,8.177452
La Cuccagna - Giro di Vite,Crispiano,Puglia,40.6052497,17.2313031
Indaco,Lacco Ameno,Campania,40.7509699,13.8900602
Miranda,Riva di Solto,Lombardia,45.7734318,10.0385394
Il Cantuccio,Albavilla,Lombardia,45.8031171,9.1884829
Il Capestrano,Milan,Lombardia,45.4641943,9.1896346
Borgo San Jacopo,Florence,Toscana,43.7697955,11.2556404
Scatto,Turin,Piemonte,45.0677551,7.6824892
Aubergine,Abano Terme,Veneto,45.3603142,11.7897833
La Rucola 2.0,Sirmione,Lombardia,45.4688494,10.6078237
Il Mecenate,Lucca,Toscana,44.017763900000006,10.454430026192636
Osteria della Villetta,Palazzolo sull'Oglio,Lombardia,45.5990687,9.8849665
Bottega Culinaria,San Vito Chietino,Abruzzo,42.296042,14.444515
Belvedere,Porto Cervo,Sardigna/Sardegna,41.1318983,9.5353646
Stella d'Italia,Pastrengo,Veneto,45.492457,10.7997129
Uliassi,Senigallia,Marche,43.7149517,13.2179488
Me Cumpari Turiddu,Catania,Sicilia,37.5023612,15.0873718
Cucina,Florence,Toscana,43.7697955,11.2556404
Orma Roma,Rome,Lazio,41.8933203,12.4829321
L'Osteria H20,Moniga del Garda,Lombardia,45.528523,10.5375734
Locanda La Raia,Gavi,Piemonte,44.687649,8.809353
Osteria alle Testiere,Venice,Veneto,45.4371908,12.3345898
Osteria La Solita Zuppa,Chiusi,Toscana,43.016515,11.9477359
Alla Fassa,Castelletto di Brenzone,Veneto,45.6871783,10.74950634348889
Piazzetta Milù,Castellammare di Stabia,Campania,40.6943046,14.4804813
La Capuccina,Cureggio,Piemonte,45.674869,8.459727
Castel fine dining,Tirol,Trentino-Alto Adige/Südtirol,46.6911008,11.1542233
Castello Malvezzi,Brescia,Lombardia,45.77958045,10.4258729694612
Corte Matilde,Pieve di Coriano,Lombardia,45.0337994,11.1082525
Osteria della Corte,La Spezia,Liguria,44.23836595,9.691232634547537
Joca,Naples,Campania,40.8358846,14.2487679
A' Cuncuma,Palermo,Sicilia,38.1112268,13.3524434
Il Grottino,Gualdo Cattaneo,Umbria,42.9094087,12.5558159
Lamberti,Alassio,Liguria,44.0080109,8.1730265
Locanda 53 Supper Club,Arco,Trentino-Alto Adige/Südtirol,45.9181327,10.8860953
Arnaldo - Clinica Gastronomica,Rubiera,Emilia-Romagna,44.6532007,10.781081
Pescarino-Sapori di Terra e di Mare,Montemarcello,Liguria,44.0461588,9.9656253
I Pifferi,Sala Baganza,Emilia-Romagna,44.7139495,10.2263338
28 Posti,Milan,Lombardia,45.4641943,9.1896346
La Sosta,Brescia,Lombardia,45.77958045,10.4258729694612
Vesta Mare,Marina di Pietrasanta,Toscana,43.9325236,10.2067186
Antica Trattoria del Gallo,Vigano,Lombardia,45.7246346,9.3245602
Adelaide,Rome,Lazio,41.8933203,12.4829321
D.One Restaurant,Montepagano,Abruzzo,42.6776944,13.9887744
Cala Luna,Cefalu,Sicilia,38.034957,14.0244562
Mirko's,Castellammare del Golfo,Sicilia,38.018846,12.885837
Opera|02,Levizzano Rangone,Emilia-Romagna,44.48606,10.9076781
La Brughiera,Senago,Lombardia,45.5761376,9.1244464
La Leggenda dei Frati,Florence,Toscana,43.7697955,11.2556404
Il Tufo Allegro,Pitigliano,Toscana,42.634827,11.673549
Deste,Porto Rotondo,Sardigna/Sardegna,41.0283101,9.5477055
Ad Astra,Santa Maria della Versa,Lombardia,44.9861766,9.3001984
Il Tino,Fiumicino,Lazio,41.7712145,12.2278855
Punto G,Monza,Lombardia,45.6395418,9.278830418070044
Cibrèo,Florence,Toscana,43.7697955,11.2556404
InGalera,Milan,Lombardia,45.4641943,9.1896346
Signore te ne ringrazi,Macerata,Marche,43.15297805,13.150882217502017
Al Becco della Civetta,Castelmezzano,Basilicata,40.5302366,16.0465508
Gina,Aosta,Valle d'Aosta / Vallée d'Aoste,45.7370885,7.3196649
Apollonia,Nals,Trentino-Alto Adige/Südtirol,46.5434871,11.2046272
Durnwald,Gsies,Trentino-Alto Adige/Südtirol,46.824096499999996,12.232500513786313
Gasthofstube Stafler,Mules,Trentino-Alto Adige/Südtirol,46.8549387,11.5238006
Pietramare Natural Food,Isola di Capo Rizzuto,Calabria,38.959993,17.093315
Osteria del Teatro,Cortona,Toscana,43.2752976,11.9850623
Anticofurlo,Acqualagna,Marche,43.6258843,12.6759738
Baretto di San Vigilio,Bergamo,Lombardia,45.756655699999996,9.754219200862249
Osteria Le Panzanelle,Lucarelli,Toscana,43.5183022,11.3118213
Al Palazzo,Positano,Campania,40.6286581,14.4854955
Villa Lattanzi,Torre di Palme,Marche,43.1412644,13.8097946
Seta by Antonio Guida,Milan,Lombardia,45.4641943,9.1896346
Radimare,Monopoli,Puglia,40.9522369,17.299948
Concezione Restaurant,Catania,Sicilia,37.5023612,15.0873718
Il Fuoco Sacro,San Pantaleo,Sardigna/Sardegna,41.0467078,9.4672873
St. George by Heinz Beck,Taormina,Sicilia,37.8512218,15.2830191
Da Ercole,Crotone,Calabria,39.1873894,16.87828188895307
Osteria Al GiGianca,Bergamo,Lombardia,45.756655699999996,9.754219200862249
Relais Blu,Massa Lubrense,Campania,40.6117381,14.3434239
Da Peppe,Rotonda,Basilicata,39.9527864,16.0390877
Le Monzù,Capri,Campania,40.5488429,14.228370814497762
Gimmi Restaurant,Lecce,Puglia,40.152217300000004,18.2260628338229
Da Burde,Florence,Toscana,43.7697955,11.2556404
KELINA Fine Dine,Corvara in Badia,Trentino-Alto Adige/Südtirol,46.5495743,11.8740339
FØRMA contemporary restaurant,L'Aquila,Abruzzo,42.1368853,13.610341022538911
La Buca,Cesenatico,Emilia-Romagna,44.1999283,12.3969692
Zàghara Restaurant,Caltanissetta,Sicilia,37.4899412,14.0631618
La Corte,Follina,Veneto,45.9530729,12.1181368
Lupaia,Torrita di Siena,Toscana,43.1667601,11.7716466
Osteria Origano,Minervino di Lecce,Puglia,40.088424,18.420432
Eggentaler,Cardano,Trentino-Alto Adige/Südtirol,46.4937167,11.3936474
Fiorfiore,Todi,Umbria,42.7824434,12.4062554
Locanda di Nonna Ida,Marano di Valpolicella,Veneto,45.5560474,10.9156845
Ai Do Campanili,Cavallino,Puglia,40.312527,18.200425
Retrobottega,Rome,Lazio,41.8933203,12.4829321
Daniela,San Casciano dei Bagni,Toscana,42.8715509,11.8752274
Al Gatto Verde,Modena,Emilia-Romagna,44.5384728,10.935960870530739
Lalibera,Alba,Piemonte,44.7007236,8.0357786
Ai Torchi,Finalborgo,Liguria,44.1763193,8.3276369
I Banchi,Ragusa,Sicilia,36.9256833,14.7307456
Angiò-Macelleria di Mare,Catania,Sicilia,37.5023612,15.0873718
Stefano Paganini alla Corte degli Alfieri,Magliano Alfieri,Piemonte,44.769244,8.070136
Poldo e Gianna Osteria,Rome,Lazio,41.8933203,12.4829321
Hostaria del Teatro,Castiglione delle Stiviere,Lombardia,45.3896766,10.4888745
Alessandro Feo,Marina di Casal Velino,Campania,40.176791,15.1240969
Lou Ressignon,Cogne,Valle d'Aosta / Vallée d'Aoste,45.6087425,7.3560226
Alle Ciaspole,Fondo,Trentino-Alto Adige/Südtirol,46.4400592,11.1364982
Locanda Lo Scopiccio,Perignano,Toscana,43.6049342,10.5896917
Osteria 1861,Santa Maria di Castellabate,Campania,40.2855627,14.947901
Il Santo Bevitore,Florence,Toscana,43.7697955,11.2556404
La Refezione,Garbagnate Milanese,Lombardia,45.5772279,9.080023
Essenziale,Florence,Toscana,43.7697955,11.2556404
Abbruzzino,Catanzaro,Calabria,38.82996034999999,16.43155687627833
Abbruzzino Oltre,Lamezia Terme,Calabria,38.9645069,16.3021451
De Gustibus,Chieri,Piemonte,45.0138842,7.8223544
Shiroya,Rome,Lazio,41.8933203,12.4829321
Antica Osteria dei Camelì,Ambivere,Lombardia,45.71958,9.55015
Antica Macelleria Cecchini - Solociccia,Panzano,Emilia-Romagna,44.6209385,11.0405308
Trattoria del Cimino dal 1895,Caprarola,Lazio,42.326625,12.235766
Da Pode,San Gimignano,Toscana,43.4677993,11.0432115
La Passion,Vintl,Trentino-Alto Adige/Südtirol,46.8758184,11.72086444217766
Quadri,Venice,Veneto,45.4371908,12.3345898
Il Rivale in Città,Brescia,Lombardia,45.77958045,10.4258729694612
Vez,San Marzano di San Giuseppe,Puglia,40.454425,17.505607
Antica Osteria La Rampina,San Giuliano Milanese,Lombardia,45.3949933,9.2842979
Phi Restaurant - Giancarlo Morelli,Baia Sardinia,Sardigna/Sardegna,40.724863303206234,9.687578993809339
Osteria La Pimpinella,Bra,Piemonte,44.6976778,7.8542707
Feel Como,Como,Lombardia,45.939475900000005,9.149410132545793
Alpenrose,Brixen,Trentino-Alto Adige/Südtirol,46.716413,11.657792
Antica Osteria da Penacio,Arcugnano,Veneto,45.5004723,11.5356994
Locanda del Pilone,Alba,Piemonte,44.7007236,8.0357786
Il Sogno,Vetrego,Veneto,45.4568006,12.1010591
La Torre,Santa Maria Annunziata,Marche,43.136155650000006,13.068603910254861
Belé,Milan,Lombardia,45.4641943,9.1896346
Tano Passami l'Olio,Milan,Lombardia,45.4641943,9.1896346
Il Presidente,Lucera,Puglia,41.5082727,15.3376465
Castagneto,Montrigiasco,Piemonte,45.7716843,8.5116697
Posta,Bologna,Emilia-Romagna,44.4938203,11.3426327
Motelombroso,Milan,Lombardia,45.4641943,9.1896346
La Braseria,Osio Sotto,Lombardia,45.616078,9.589053
Henri Restaurant,Viareggio,Toscana,43.8672392,10.2506055
Il Piccolo Principe,Viareggio,Toscana,43.8672392,10.2506055
Da Cecco,Torre del Lago Puccini,Toscana,43.8280555,10.2912202
La Martinatica,Pietrasanta,Toscana,43.9589031,10.2332031
Ca' Mia,Alserio,Lombardia,45.7791026,9.1995294
Tre Olivi,Paestum,Campania,40.4216783,15.0148832
Locanda dell'Arcimboldo,Coriano Veronese,Veneto,45.4302,10.9916
Pascalucci,San Nicola Manfredi,Campania,41.0717684,14.8245336
Unterwirt,Gudon,Trentino-Alto Adige/Südtirol,46.6488221,11.6024079
Le Cupole,Rapallo,Liguria,44.3511473,9.229671
Ai Burattini,Adrara San Martino,Lombardia,45.6999454,9.9489353
Alla Corte Lombarda,Mornago,Lombardia,45.747541,8.752299
Salotto sul Mare,Terrasini,Sicilia,38.1528221,13.0821216
Da Lorenzo,Scala,Campania,40.6536142,14.6077924
W Villadorata Country Restaurant,Noto,Sicilia,36.8908864,15.0706454
Da Fausto,Fondi,Lazio,41.3572854,13.430031
Carusu,Agrigento,Sicilia,37.3122991,13.57465
Hosteria Giusti,Modena,Emilia-Romagna,44.5384728,10.935960870530739
Andrea Aprea,Milan,Lombardia,45.4641943,9.1896346
La Maison Delfino,Moncalieri,Piemonte,45.0004614,7.6847543
Vitis,Brixen,Trentino-Alto Adige/Südtirol,46.716413,11.657792
La Tana Gourmet,Asiago,Veneto,45.8753771,11.5106998
Locanda del Molino,Cortona,Toscana,43.2752976,11.9850623
Schöneck,Molini,Piemonte,44.5853383,8.8681367
Osteria Cascina dei Fiori,Borgo Vercelli,Piemonte,45.357862,8.463033
Oltremare,Maiori,Campania,40.648908,14.640141
Trattoria della Posta,Monforte d'Alba,Piemonte,44.582438,7.969637
Il Capriolino,Vodo di Cadore,Veneto,46.419622,12.244899
Il Gallo Cedrone,Madonna di Campiglio,Trentino-Alto Adige/Südtirol,46.2269942,10.8270157
Regallo,Biella,Piemonte,45.5669538,8.086912008297636
Bacco e Arianna,Trezzano sul Naviglio,Lombardia,45.4182125,9.0710538
Moscatello Muliner,Pozzolengo,Lombardia,45.4059696,10.6313729
Josto,Cagliari,Sardigna/Sardegna,39.2171994,9.113311
Paolo Teverini,Bagno di Romagna,Emilia-Romagna,43.8352272,11.9595985
Laghetto,Brusson,Valle d'Aosta / Vallée d'Aoste,45.759342,7.7304474
La Cucina dei Frigoriferi Milanesi,Milan,Lombardia,45.4641943,9.1896346
Casa Vicina,Turin,Piemonte,45.0677551,7.6824892
Le Colonne,Caserta,Campania,41.20351925,14.116862382970815
Vecio Macello,Verona,Veneto,45.442497700000004,10.985737689444763
Bistrot La Perla,Corvara in Badia,Trentino-Alto Adige/Südtirol,46.5495743,11.8740339
Santa Elisabetta,Florence,Toscana,43.7697955,11.2556404
Borgo Sant'Anna,Monforte d'Alba,Piemonte,44.582438,7.969637
Cannavacciuolo Bistrot,Turin,Piemonte,45.0677551,7.6824892
Harry's Piccolo,Trieste,Friuli-Venezia Giulia,45.6496485,13.7772781
Villa Pignano,Volterra,Toscana,43.400337,10.860019
Andrea Monesi - Locanda di Orta,Orta San Giulio,Piemonte,45.7980814,8.406951
Gatto Rosso,Taranto,Puglia,40.54881555,17.08058012454743
Trattoria da Amerigo,Savigno,Emilia-Romagna,44.3919473,11.0745599
Del Belbo - Da Bardon,San Marzano Oliveto,Piemonte,44.7540212,8.2957567
Fàula,Cerretto Langhe,Piemonte,44.574839,8.09794
MU Dimsum,Milan,Lombardia,45.4641943,9.1896346
Lorenzo,Forte dei Marmi,Toscana,43.9595891,10.1699392
Hostaria Baccofurore,Furore,Campania,40.6189356,14.548136940664227
Sora Maria e Arcangelo,Olevano Romano,Lazio,41.860621,13.03309
Gardenia,Caluso,Piemonte,45.304955,7.895722
Romolo Mare,Bordighera,Liguria,43.7850512,7.6591094
Osteria del Tempo Perso,Ravenna,Emilia-Romagna,44.364060699999996,12.059009490863945
Osteria del Tasso,Bolgheri,Toscana,43.2340065,10.6179334
Alla Lanterna,Fano,Marche,43.8424173,13.0146632
Dalie e Fagioli,Manerba del Garda,Lombardia,45.549434,10.5512888
Casamare,Salerno,Campania,40.419441649999996,15.310608468834516
Dalla Rosa Alda,San Giorgio di Valpolicella,Veneto,45.5354843,10.8495646
Cut,Caravaggio,Lombardia,45.4972605,9.6437404
Evan's,Cassino,Lazio,41.4925576,13.8305297
Nascostoposto,Terni,Umbria,42.6539486,12.439652829139407
La Sala dei Grappoli,Montalcino,Toscana,43.0575578,11.4902818
L'Arcade,Porto San Giorgio,Marche,43.1826562,13.7933863
Caino,Montemerano,Toscana,42.62152,11.4911311
Quadri Bistrot,Milan,Lombardia,45.4641943,9.1896346
Franceschetta 58,Modena,Emilia-Romagna,44.5384728,10.935960870530739
Vairo del Volturno,Vairano Patenora,Campania,41.337019,14.1311068
Arva,Venice,Veneto,45.4371908,12.3345898
Battaglino,Bra,Piemonte,44.6976778,7.8542707
Colline Emiliane,Rome,Lazio,41.8933203,12.4829321
Ai Gondolieri,Venice,Veneto,45.4371908,12.3345898
Vicolo Colombina,Bologna,Emilia-Romagna,44.4938203,11.3426327
L'Osteria di Santa Marina,Venice,Veneto,45.4371908,12.3345898
Marco Martini Restaurant,Rome,Lazio,41.8933203,12.4829321
Pascucci al Porticciolo,Fiumicino,Lazio,41.7712145,12.2278855
Imperialino,Moltrasio,Lombardia,45.874050249999996,9.091480319324706
Il Pozzo,Reggio Emilia,Emilia-Romagna,44.6086674,10.594066675914796
GioEle,Stradella,Lombardia,45.0773563,9.2950171
Futura,Chieti,Abruzzo,42.10269285,14.41590530501923
Ora d'Aria,Florence,Toscana,43.7697955,11.2556404
Il Convito della Venaria,Venaria Reale,Piemonte,45.1348114,7.6268658
Capriccio,Manerba del Garda,Lombardia,45.549434,10.5512888
Fattoria delle Torri,Modica,Sicilia,36.8589209,14.7613018
Ristorante 1500,San Vigilio,Lombardia,45.6081203,10.1939822
ChiaroScuro,Cagliari,Sardigna/Sardegna,39.2171994,9.113311
Capogiro,Baia Sardinia,Sardigna/Sardegna,40.724863303206234,9.687578993809339
SanBrite,Cortina d'Ampezzo,Veneto,46.5383332,12.1373506
Mangiare Bere Uomo Donna,Suzzara,Lombardia,44.991873,10.74309
La Pista,Turin,Piemonte,45.0677551,7.6824892
Donevandro,Popoli,Abruzzo,42.1713106,13.832817
Chalet Gerard,Selva di Val Gardena,Trentino-Alto Adige/Südtirol,46.5551877,11.7600992
Lo Stuzzichino,Sant'Agata sui Due Golfi,Campania,40.6070492,14.3732936
Pierre - Trattoria Sartoriale,Treviso,Veneto,45.806691349999994,12.206315763116372
[àbitat],San Fermo della Battaglia,Lombardia,45.8084245,9.048551
Palazzo Petrucci Pizzeria,Naples,Campania,40.8358846,14.2487679
Fiorentino e Locanda del Giglio,Sansepolcro,Toscana,43.5700776,12.1403766
La Chiocciola,Quartiere di Portomaggiore,Emilia-Romagna,44.7120376,11.7571789
Hanswirt,Rablà,Trentino-Alto Adige/Südtirol,46.6728776,11.0617356
Trattoria 'petito,Forlì,Emilia-Romagna,44.2227278,12.041273
Il Ristorante Alain Ducasse Napoli,Naples,Campania,40.8358846,14.2487679
Autem*,Milan,Lombardia,45.4641943,9.1896346
Gino Sorbillo,Naples,Campania,40.8358846,14.2487679
Le Tre Colombe,Fornace,Trentino-Alto Adige/Südtirol,46.1181956,11.2065014
Lunasia,Viareggio,Toscana,43.8672392,10.2506055
El Molin,Cavalese,Trentino-Alto Adige/Südtirol,46.291187,11.4604681
Faraglioni Restaurant,Aci Castello,Sicilia,37.5542111,15.14856
Agli Amici Dopolavoro,Venice,Veneto,45.4371908,12.3345898
Osteria Il Maialetto,Monsummano Terme,Toscana,43.8707438,10.8140162
Palmerino - Il Bacalà a Sandrigo,Sandrigo,Veneto,45.6606078,11.6029276
Materia Prima,Castel di Sangro,Abruzzo,41.7842727,14.1080639
Bino,Savona,Liguria,44.2334238,8.252572737021062
Angelo Sabatelli,Putignano,Puglia,40.8492021,17.1226371
Il Cavallo Scosso,Asti,Piemonte,44.826012649999996,8.202686328987273
Antinè,Barbaresco,Piemonte,44.7254469,8.0806959
Emilio,Fermo,Marche,43.0922489,13.638768067263769
Locanda Gulfi,Chiaramonte Gulfi,Sicilia,37.031342,14.701285
Locale,Florence,Toscana,43.7697955,11.2556404
Guallina,Mortara,Lombardia,45.2518433,8.7377449
All’Ombra del Gabbiano,Mestre,Veneto,45.4943063,12.2418053
Restaurant 700,Ostuni,Puglia,40.727631,17.576406
Osteria San Giulio,Badia di Dulzago,Piemonte,45.5499058,8.612759
Antica Locanda,Caserta,Campania,41.20351925,14.116862382970815
Dama Restaurant,Venice,Veneto,45.4371908,12.3345898
Antica Osteria del Ponte,Cassinetta di Lugagnano,Lombardia,45.4235759,8.9083136
Degusteria del Gigante,San Benedetto del Tronto,Marche,42.9525328,13.8807144
Spin Ristorante-Enoteca,Genoa,Liguria,44.40726,8.9338624
Antica Osteria Nonna Rosa,Vico Equense,Campania,40.6623446,14.4264683
Massimo Camia,La Morra,Piemonte,44.6384797,7.9325818
Dei Cantoni,Longiano,Emilia-Romagna,44.0743778,12.3274733
Trattoria Cibrèo - Il Cibrèino,Florence,Toscana,43.7697955,11.2556404
Ca' Apollonio Gourmet,Romano d'Ezzelino,Veneto,45.7962374,11.7583907
Le Antiche Sere,Lesina,Puglia,41.8619097,15.3532657
Su Murruai,Riola Sardo,Sardigna/Sardegna,39.9941018,8.5386732
Coxinendi,Sanluri,Sardigna/Sardegna,39.562642,8.898636
Da ö Vittorio,Recco,Liguria,44.3652396,9.1462995
Baccanti,Matera,Basilicata,40.447641899999994,16.47357384028852
Taverna del Grappolo Blu,Montalcino,Toscana,43.0575578,11.4902818
Il Melograno,Trani,Puglia,41.275088,16.4162585
13 Comuni,Velo Veronese,Veneto,45.6050596,11.0957685
La Rosina,Marostica,Veneto,45.7453924,11.6568938
La Rei Natura by Michelangelo Mammoliti,Serralunga d'Alba,Piemonte,44.6106859,8.0005562
Lokanda Devetak,Savogna d'Isonzo,Friuli-Venezia Giulia,45.9058822,13.5748641
Da Orlando,Cusago,Lombardia,45.447848,9.0345128
Antica Trattoria La Toppa,San Donato in Poggio,Toscana,43.5353195,11.2342716
Le Logge del Vignola,Montepulciano,Toscana,43.0945279,11.7826795
Ruris,Isola di Capo Rizzuto,Calabria,38.959993,17.093315
Cile's,Fano,Marche,43.8424173,13.0146632
Osteria Magona,Bolgheri,Toscana,43.2340065,10.6179334
Modì,Torregrotta,Sicilia,38.1916373,15.3524394
Sapio,Catania,Sicilia,37.5023612,15.0873718
CENERE - Museum & Bistrot,Pompei,Campania,40.7491267,14.5006415
Impero,Sizzano,Piemonte,45.577467,8.437329
Lorelei,Sorrento,Campania,40.624906,14.374836
Paolo e Barbara,San Remo,Emilia-Romagna,44.6306267,10.9370532
Luna Rossa,Terranova di Pollino,Basilicata,39.978107,16.296286
L'antica Pizzeria da Michele,Naples,Campania,40.8358846,14.2487679
La Luge,Breuil Cervinia,Valle d'Aosta / Vallée d'Aoste,45.9356034,7.6304397
Zest,Sorrento,Campania,40.624906,14.374836
Equilibrio,Dolcedo,Liguria,43.9074393,7.9510985
Buatta Cucina Popolana,Palermo,Sicilia,38.1112268,13.3524434
Laurin,Bolzano,Trentino-Alto Adige/Südtirol,46.655945450000004,11.23021287087526
Burjè 1968,Corvara in Badia,Trentino-Alto Adige/Südtirol,46.5495743,11.8740339
Caffè Dante Bistrot,Verona,Veneto,45.442497700000004,10.985737689444763
Madama Piola,Turin,Piemonte,45.0677551,7.6824892
Frosch Restaurant,Varena,Trentino-Alto Adige/Südtirol,46.3035575,11.4559989
Bentōteca,Milan,Lombardia,45.4641943,9.1896346
Osteria dalla Peppa,Fano,Marche,43.8424173,13.0146632
Hyle,San Giovanni in Fiore,Calabria,39.2536724,16.6978044
Sa Cardiga e Su Schironi,Capoterra,Sardigna/Sardegna,39.175313,8.9719503
Marelet,Treviglio,Lombardia,45.5217245,9.5931485
Osteria del Borgo,Galliate,Piemonte,45.4782672,8.6969031
Cortile Arabo,Marzamemi,Sicilia,36.7418376,15.1176543
Amanõ,Cagliari,Sardigna/Sardegna,39.2171994,9.113311
Piacentino,Bobbio,Emilia-Romagna,44.769273,9.3862814
Alto,Fiorano Modenese,Emilia-Romagna,44.539143,10.8118482
Da Gigi,Crandola Valsassina,Lombardia,46.0228917,9.378763
Green T.,Rome,Lazio,41.8933203,12.4829321
Ahimè,Bologna,Emilia-Romagna,44.4938203,11.3426327
Scannabue Caffè Restaurant,Turin,Piemonte,45.0677551,7.6824892
Evo Ristorante,Alberobello,Puglia,40.7841242,17.2377031
Trattoria la Colonna,Rottofreno,Emilia-Romagna,45.0576876,9.5502149
Da Gorini,San Piero in Bagno,Emilia-Romagna,43.8576286,11.9769068
U.P.E.P.I.D.D.E.,Ruvo di Puglia,Puglia,41.1171985,16.4845354
Cannavacciuolo by the Lake,Pettenasco,Piemonte,45.8171622,8.4087011
Osteria Fernanda,Rome,Lazio,41.8933203,12.4829321
Da Vittorio,Brusaporto,Lombardia,45.6708455,9.7613544
Le Lampare al Fortino,Trani,Puglia,41.275088,16.4162585
Giardinetto,Pettenasco,Piemonte,45.8171622,8.4087011
Cucina Rambaldi,Villar Dora,Piemonte,45.114646,7.383515
Corbezzoli,Bologna,Emilia-Romagna,44.4938203,11.3426327
Forma,Civitavecchia,Lazio,42.0937524,11.7922462
Trattoria Pennestri,Rome,Lazio,41.8933203,12.4829321
Rendenèr Alpine Food,Pinzolo,Trentino-Alto Adige/Südtirol,46.1617322,10.7650043
Linfa,San Gimignano,Toscana,43.4677993,11.0432115
La Péniche,Marina di Massa,Toscana,44.0094968,10.1019306
Villa Salina,Moretta,Piemonte,44.763839,7.537125
Osteria Bertaina,Mondovì,Piemonte,44.3900282,7.8204718
Osteria di Passignano,Passignano,Emilia-Romagna,44.7375497,10.2785277
Ansitz Steinbock,Villandro,Trentino-Alto Adige/Südtirol,46.6329339,11.5401011
Vitantonio Lombardo,Matera,Basilicata,40.447641899999994,16.47357384028852
Mingone,Carnello,Lazio,41.6900097,13.6049056
Il Luogo Aimo e Nadia,Milan,Lombardia,45.4641943,9.1896346
Locanda del Barone,Caramanico Terme,Abruzzo,42.156446,14.0031895
Antica Farmacia,Palaia,Toscana,43.6047668,10.7730759
Tenne Lodges,Colle,Friuli-Venezia Giulia,46.1620434,12.8089746
Vert Osteria Contemporanea,Caprino Veronese,Veneto,45.6059385,10.7951325
Principe di Belludia,Noto,Sicilia,36.8908864,15.0706454
Oishi,Teramo,Abruzzo,42.65811795,13.69787458752063
Augurio,Trento,Trentino-Alto Adige/Südtirol,46.1029536,11.12974249416882
Prezioso,Merano,Trentino-Alto Adige/Südtirol,46.6695547,11.1594185
La Cerreta Osteria,Sassetta,Toscana,43.1289914,10.6439077
Don Alfonso 1890,Sant'Agata sui Due Golfi,Campania,40.6070492,14.3732936
Alla Pace,Sauris,Friuli-Venezia Giulia,46.4653657,12.7087174
Trattoria Via Vai,Bolzone,Lombardia,45.3332343,9.6629613
Frades La Terrazza,Porto Cervo,Sardigna/Sardegna,41.1318983,9.5353646
LoRo,Trescore Balneario,Lombardia,45.696483,9.842557
Villa Baroni,Bodio Lomnago,Lombardia,45.79122945,8.751004282625567
Trattoria Al Passo,Venice,Veneto,45.4371908,12.3345898
Frades Porto Cervo,Milan,Lombardia,45.4641943,9.1896346
Al Cjasal,San Michele al Tagliamento,Veneto,45.7651506,12.9952302
Visione Restaurant and Living,Barbaresco,Piemonte,44.7254469,8.0806959
Signum,Malfa,Sicilia,38.57597,14.835471
Da Giacomo,Pizzighettone,Lombardia,45.1868847,9.7824836
The Cook,Genoa,Liguria,44.40726,8.9338624
Maso Runch-Hof,Pedraces,Trentino-Alto Adige/Südtirol,46.6094709,11.8936604
Metodo,Marne,Lombardia,45.6241377,9.5579552
La Ciotola,Porcia,Friuli-Venezia Giulia,45.946555000000004,12.601780874786431
Zum Löwen,Tisens,Trentino-Alto Adige/Südtirol,46.5638983,11.1694971
Benso,Forlì,Emilia-Romagna,44.2227278,12.041273
Il Funghetto,Latina,Lazio,41.45952605,13.012591212188894
Da Fausto,Cavatore,Piemonte,44.630344,8.454247
Casa Bertini,Recanati,Marche,43.4035085,13.5486016
Luca's by Paulo Airaudo,Florence,Toscana,43.7697955,11.2556404
Tana de 'l Ors,Forno di Zoldo,Veneto,46.3466219,12.1770892
Une,Capodacqua,Umbria,43.0176633,12.7835946
Da Nando,Mortegliano,Friuli-Venezia Giulia,45.9458064,13.1727963
La Rosa dei Venti,Milan,Lombardia,45.4641943,9.1896346
Leon d'Oro,Pralboino,Lombardia,45.2679989,10.2174131
Osteria del Trentino - Da Marco,Piacenza,Emilia-Romagna,44.8476352,9.666531257696896
Calvi Ristorante,Altamura,Puglia,40.8285595,16.5527314
Marixx,Ventimiglia,Liguria,43.7917623,7.6033131
Casa della Rocca,Dolcedo,Liguria,43.9074393,7.9510985
John Restaurant-Casamadre,Afragola,Campania,40.926012,14.310831
Macelleria Motta,Bellinzago Lombardo,Lombardia,45.542075,9.445951
La Coldana,Lodi,Lombardia,45.2613104,9.491678060021837
L˜ARIA,Blevio,Lombardia,45.8399418,9.1024697
La Zanzara,Codigoro,Emilia-Romagna,44.831581,12.109524
Il Saraceno,Cavernago,Lombardia,45.625097,9.7616399
Canova by Sadler,Venice,Veneto,45.4371908,12.3345898
Trippa,Milan,Lombardia,45.4641943,9.1896346
Lido 84,Fasano del Garda,Lombardia,45.5479,10.6152
Aqua,Torbole,Lombardia,45.512581,10.115467
Quel Fantastico Giovedì,Ferrara,Emilia-Romagna,44.766764249999994,11.827938995640167
Doppio Gusto,Milazzo,Sicilia,38.2208049,15.2415129
Truth Restaurant,Aversa,Campania,40.973212,14.204928
La Musa Restaurant & Rooftop Terrace,Cima,Lombardia,46.0249137,9.090261
Contrasto,Cercemaggiore,Molise,41.461326,14.723133
Osteria Ophis,Offida,Marche,42.9348208,13.6910435
Dallo Zio,Rimini,Emilia-Romagna,43.946543250000005,12.630749019254939
La Corniola,Pescocostanzo,Abruzzo,41.88633,14.065612
Oseleta,Cavaion Veronese,Veneto,45.5402927,10.7701873
I Due Buoi,Olivola,Piemonte,45.0373877,8.3675266
Il Cantinone e Sport Hotel Alpina,Madesimo,Lombardia,46.4362982,9.3584136
Alajmo Cortina,Cortina d'Ampezzo,Veneto,46.5383332,12.1373506
Le Viole,Castelnovo di Baganzola,Emilia-Romagna,44.8522,10.2693
Le Cedrare,Illasi,Veneto,45.4659334,11.1800214
Scaraboci,Marciana Marina,Toscana,42.8036083,10.1967676
Da Nadia,Clusane d'Iseo,Lombardia,45.6621863,10.0022105
Storie d'Amore,Borgoricco,Veneto,45.5335614,11.9658789
Locanda Don Serafino,Ragusa,Sicilia,36.9256833,14.7307456
Bis Osteria Italiana Contemporanea,Colle di Val d'Elsa,Toscana,43.4226455,11.126394
Grual,Pinzolo,Trentino-Alto Adige/Südtirol,46.1617322,10.7650043
La Cascina 1899,Rocella Jonica,Calabria,38.3242,16.4017
VeRo - Venetian Roots,Venice,Veneto,45.4371908,12.3345898
Lucenti,Montefiorino,Emilia-Romagna,44.3580054,10.6229898
La Fossa del Grano,San Severo,Puglia,41.6897761,15.3776211
Borgo Spoltino,Mosciano Sant'Angelo,Abruzzo,42.7493491,13.8880309
"Olona - ""Da Venanzio"" dal 1922",Induno Olona,Lombardia,45.8524484,8.839608
Li Jalantuùmene,Monte Sant'Angelo,Puglia,41.70544,15.967657
L’Alchimia,Milan,Lombardia,45.4641943,9.1896346
L'Insolita Trattoria Tre Soldi,Florence,Toscana,43.7697955,11.2556404
Osteria de Börg,Rimini,Emilia-Romagna,43.946543250000005,12.630749019254939
La Filanda,Manciano,Toscana,42.5872822,11.5157197
Essentia,Castrocaro Terme,Emilia-Romagna,44.182365,11.955631
Podere San Faustino,Fidenza,Emilia-Romagna,44.866522,10.0611939
Osteria Il Bagatto,Limone Piemonte,Piemonte,44.202726,7.576336
L'Oste Dispensa,Orbetello,Toscana,42.4380944,11.2107429
Unforgettable,Turin,Piemonte,45.0677551,7.6824892
Porcino,Badia,Trentino-Alto Adige/Südtirol,46.610124,11.893487
Armando al Pantheon,Rome,Lazio,41.8933203,12.4829321
Sensi,Amalfi,Campania,40.63367,14.6026095
Materia,Cernobbio,Lombardia,45.8413945,9.0759048
DaV  Mare,Portofino,Liguria,44.3036653,9.2093446
Osteria della Brughiera,Villa d'Almè,Lombardia,45.749682,9.614451
La Locanda di Fabio e Vale,Offanengo,Lombardia,45.378874,9.742361
Il Ristorante - Niko Romito,Milan,Lombardia,45.4641943,9.1896346
Ristorante de LEN,Cortina d'Ampezzo,Veneto,46.5383332,12.1373506
Da Alighiero,Anghiari,Toscana,43.5409662,12.0545815
Café Quinson,Morgex,Valle d'Aosta / Vallée d'Aoste,45.7580223,7.0354328
Winter Garden Florence,Florence,Toscana,43.7697955,11.2556404
Osteria dal Moro,Giulianova Lido,Abruzzo,42.7514,13.9631
53 Untitled,Rome,Lazio,41.8933203,12.4829321
Villa Fiordaliso,Gardone Riviera,Lombardia,45.6187853,10.5591005
Hosteria Toblino,Sarche di Madruzzo,Trentino-Alto Adige/Südtirol,46.0458775,10.9515034
Borgia Milano,Milan,Lombardia,45.4641943,9.1896346
Dimora Ulmo,Matera,Basilicata,40.447641899999994,16.47357384028852
Il Focarile,Aprilia,Lazio,41.5942016,12.6485765
La Locanda dei Beccaria,Montù Beccaria,Lombardia,45.0369456,9.3155381
Ca' Matilde,Rubbianino,Emilia-Romagna,44.6513054,10.525093
Burro & Alici,Marotta,Marche,43.7712681,13.1330281
Antica Osteria Magenes,Barate,Lombardia,45.3848891,9.0405539
Bramea,Palazzo San Gervasio,Basilicata,40.931324,15.980767
I Rodella,Deruta,Umbria,42.98229,12.4195878
Il Basilisco,Treviso,Veneto,45.806691349999994,12.206315763116372
I Due Cippi dal 1976,Saturnia,Toscana,42.6652237,11.5049888
Le Vie del Borgo,Toceno,Piemonte,46.1435648,8.4666927
Il Galeone,Fano,Marche,43.8424173,13.0146632
Meraviglioso Osteria Moderna,Polignano a Mare,Puglia,40.9961185,17.2195857
Re Santi e Leoni,Nola,Campania,40.9210826,14.5327402
Controcorrente,Noli,Liguria,44.2058832,8.416419
Wood,Breuil Cervinia,Valle d'Aosta / Vallée d'Aoste,45.9356034,7.6304397
La Credenza,San Maurizio Canavese,Piemonte,45.2166755,7.6312409
Le Cicale,Spinetta Marengo,Piemonte,44.8861753,8.6829041
Remulass,Milan,Lombardia,45.4641943,9.1896346
Antica Moka,Modena,Emilia-Romagna,44.5384728,10.935960870530739
Romano,Viareggio,Toscana,43.8672392,10.2506055
L'Acciuga,Ravenna,Emilia-Romagna,44.364060699999996,12.059009490863945
Tre Galline,Turin,Piemonte,45.0677551,7.6824892
ConTatto,Frascati,Lazio,41.8082452,12.6803684
Osteria da Cippi,Frisanco,Friuli-Venezia Giulia,46.2127764,12.7270621
Acqua Pazza,Ponza,Lazio,40.8932368,12.9630622
Fè Ristorante,Noci,Puglia,40.7946798,17.1235566
Canapone,Grosseto,Toscana,42.7751102,11.287804427628437
Marina Grande,Amalfi,Campania,40.63367,14.6026095
Savô,Laigueglia,Liguria,43.9788263,8.157351
Brindo,Cusago,Lombardia,45.447848,9.0345128
Duo,Chiavari,Liguria,44.3164494,9.3233382
La Porta Restaurant,Bologna,Emilia-Romagna,44.4938203,11.3426327
Osteria della Foce,Genoa,Liguria,44.40726,8.9338624
Il Circolino,Monza,Lombardia,45.6395418,9.278830418070044
Locanda Perbellini - Ai Beati,Garda,Veneto,45.5756512,10.7085298
Moma,Rome,Lazio,41.8933203,12.4829321
Umami,Badalucco,Liguria,43.9155573,7.8472946
Pantagruele,Brindisi,Puglia,40.63591975,17.688443357842537
12 Ristorante,Cesenatico,Emilia-Romagna,44.1999283,12.3969692
Al Vedel,Vedole,Emilia-Romagna,44.9228321,10.3594849
Pescheria,Salerno,Campania,40.419441649999996,15.310608468834516
Grantosco,Grosseto,Toscana,42.7751102,11.287804427628437
Carignano,Turin,Piemonte,45.0677551,7.6824892
Ichikawa,Milan,Lombardia,45.4641943,9.1896346
Aurora,Feltre,Veneto,46.0163755,11.9062541
La Madernassa,Guarene,Piemonte,44.7394863,8.0348361
Nerina,Romeno,Trentino-Alto Adige/Südtirol,46.3939973,11.1202732
Rezzano Cucina e Vino,Sestri Levante,Liguria,44.2714526,9.3958627
Gallo Nero,Sienna,Toscana,43.167205949999996,11.467561040475552
Duo,San Felice del Benaco,Lombardia,45.5895461,10.5517327
Bacucco d'Oro,Mutignano,Abruzzo,42.5876614,14.0334093
Taverna 58,Pescara,Abruzzo,42.3102619,13.95759010584892
Locanda Perbellini al Mare,Montallegro,Sicilia,37.392939,13.350753
Ada,Perugia,Umbria,43.1070321,12.402996209906487
Elephant,Brixen,Trentino-Alto Adige/Südtirol,46.716413,11.657792
Al Malò - Cucina e Miscelazione,Rovato,Lombardia,45.5670385,9.9986008
Anto e Robi,Robbio,Lombardia,45.2899709,8.5932785
Caffè Meletti,Ascoli Piceno,Marche,42.8834204,13.539593040686007
Trattoria di Via Serra,Bologna,Emilia-Romagna,44.4938203,11.3426327
Esplanade,Desenzano del Garda,Lombardia,45.4694851,10.5389467
La Cantinella,Montemarciano,Marche,43.6396433,13.3095299
Ostaria Tyrol,Moena,Trentino-Alto Adige/Südtirol,46.3769434,11.6592663
Dolomieu,Madonna di Campiglio,Trentino-Alto Adige/Südtirol,46.2269942,10.8270157
L'Ottava Nota,Palermo,Sicilia,38.1112268,13.3524434
Giorgio e Flora,Velo,Veneto,45.7722838,11.5613663
Procaccini,Milan,Lombardia,45.4641943,9.1896346
Ling's Ravioleria Migrante,Bologna,Emilia-Romagna,44.4938203,11.3426327
Campamac,Barbaresco,Piemonte,44.7254469,8.0806959
MoS,Desenzano del Garda,Lombardia,45.4694851,10.5389467
L'Olivo,Anacapri,Campania,40.555713,14.2136104
Hostaria dai Musi,Alba,Piemonte,44.7007236,8.0357786
La Gritta,Palau,Sardigna/Sardegna,41.1810758,9.3820424
Domenico dal 1968,Rome,Lazio,41.8933203,12.4829321
Li Somari,Tivoli,Lazio,41.960922,12.798884
Terrazza Costantino,Sclafani Bagni,Sicilia,37.821589,13.8547805
Cappuccini Cucina San Francesco,Cologne,Lombardia,45.5815203,9.9411725
Estrò,Pescara,Abruzzo,42.3102619,13.95759010584892
Radici Osteria Contemporanea,Gallarate,Lombardia,45.6598951,8.7932013
Dim Sum,Milan,Lombardia,45.4641943,9.1896346
Da Severino il Vecchio - Di Luciano,Senorbì,Sardigna/Sardegna,39.535044,9.130141
Accursio,Modica,Sicilia,36.8589209,14.7613018
Tre Scalini,Novara,Piemonte,45.584250049999994,8.545996970894572
Hostaria da Franz,Venice,Veneto,45.4371908,12.3345898
Blaue Traube,Algund,Trentino-Alto Adige/Südtirol,46.6825194,11.1230691
Osteria dell'Arco,Alba,Piemonte,44.7007236,8.0357786
Antica Osteria del Mare,Milan,Lombardia,45.4641943,9.1896346
Trattoria I Masenini,Verona,Veneto,45.442497700000004,10.985737689444763
Dalla Gioconda,Gabicce Monte,Marche,43.964191,12.7734292
Don Camillo,Syracuse,Sicilia,37.0646139,15.2907196
Da Nonna Sceppa,Paestum,Campania,40.4216783,15.0148832
Agriturismo Il Cavallino,Semproniano,Toscana,42.7306583,11.5403457
Satricvm,Le Ferriere,Lazio,41.5150688,12.7552928
Duo Ristorante,Lecce,Puglia,40.152217300000004,18.2260628338229
aldìVino,Corciano,Umbria,43.1290269,12.287718
Le Miniere,Traversella,Piemonte,45.508458,7.749415
ME Restaurant,Pizzo,Calabria,38.7356749,16.1622949
Wistèria,Venice,Veneto,45.4371908,12.3345898
Osteria Piazzetta Cattedrale,Ostuni,Puglia,40.727631,17.576406
Nostrano,Pesaro,Marche,43.9098114,12.9131228
Villa Giulia - Al Terrazzo,Valmadrera,Lombardia,45.846282,9.358244
La Torre,Tavarnelle Val di Pesa,Toscana,43.5611665,11.1730035
Cacciatori,Cartosio,Piemonte,44.5918425,8.4201313
Guidoristorante,Serralunga d'Alba,Piemonte,44.6106859,8.0005562
Dina,Gussago,Lombardia,45.5926638,10.15345
La Brinca,Ne,Liguria,44.3519258,9.4402573
Maxi,Vico Equense,Campania,40.6623446,14.4264683
Cracco Portofino,Portofino,Liguria,44.3036653,9.2093446
Aciniello,Campobasso,Molise,41.717264799999995,14.826226697820019
Bottega Lucia,Milan,Lombardia,45.4641943,9.1896346
Al Fogher,Piazza Armerina,Sicilia,37.385946,14.367174
Osteria dei Maltagliati,Torano Nuovo,Abruzzo,42.823048,13.777293
La Casa degli Spiriti,Costermano,Veneto,45.5856638,10.7399739
La Trota,Rivodutri,Lazio,42.516434,12.854977
Bracali,Ghirlanda,Toscana,43.057509,10.9014668
Osteria Francescana,Modena,Emilia-Romagna,44.5384728,10.935960870530739
Ca' d'Frara,Ferrara,Emilia-Romagna,44.766764249999994,11.827938995640167
Masseria Moroseta,Ostuni,Puglia,40.727631,17.576406
Radici Gourmet,Padua,Veneto,45.4077172,11.8734455
Lineadombra,Venice,Veneto,45.4371908,12.3345898
Volta del Fuenti by Michele De Blasio,Vietri sul Mare,Campania,40.6715477,14.7286002
Santa Teresa,Genoa,Liguria,44.40726,8.9338624
Krone,Aldino,Trentino-Alto Adige/Südtirol,46.3686753,11.3543243
Gimmy's,Aprica,Lombardia,46.152697,10.151656
Carne & Spirito,Brescia,Lombardia,45.77958045,10.4258729694612
Magazzino 52,Turin,Piemonte,45.0677551,7.6824892
Osteria le Logge,Sienna,Toscana,43.167205949999996,11.467561040475552
MOI Omakase,Prato,Toscana,43.935718050000006,11.09414726770089
Antica Trattoria Centro,Levanto,Liguria,44.1699056,9.6120397
Wine & Dine,Canazei,Trentino-Alto Adige/Südtirol,46.4768809,11.7710748
Le Baccanti,Nola,Campania,40.9210826,14.5327402
Trattoria al Pompiere,Verona,Veneto,45.442497700000004,10.985737689444763
San Baylon,Rome,Lazio,41.8933203,12.4829321
Rear Restaurant,Nola,Campania,40.9210826,14.5327402
Gong,Milan,Lombardia,45.4641943,9.1896346
Saur,Barco,Lombardia,45.3791667,9.8995332
La Società Milano,Milan,Lombardia,45.4641943,9.1896346
Osteria Billis,Tortona,Piemonte,44.89666,8.8641282
Agritur El Mas,Moena,Trentino-Alto Adige/Südtirol,46.3769434,11.6592663
Cavalluccio Marino,Lampedusa,Sicilia,35.511134150000004,12.59629135962961
Il Pievano,Gaiole in Chianti,Toscana,43.4682951,11.4342003
Osteria Il Principe e Il Pirata,Pantelleria,Sicilia,36.8314576,11.9450395
L'Erba del Re,Modena,Emilia-Romagna,44.5384728,10.935960870530739
Sotto l'Arco,Bologna,Emilia-Romagna,44.4938203,11.3426327
La Fiaschetteria,Besenzone,Emilia-Romagna,44.987157,9.9535782
Al Baliaggio,Venosa,Basilicata,40.961323,15.814863
Feria,Treviso,Veneto,45.806691349999994,12.206315763116372
Valli di Lanzo,Céres,Piemonte,45.3133772,7.3896883
Cucina Cereda,Ponte San Pietro,Lombardia,45.6977541,9.5872254
La Corte Gourmet,Lainate,Lombardia,45.57093,9.0270637
Enoteca Pinchiorri,Florence,Toscana,43.7697955,11.2556404
Al Tonno di Corsa,Carloforte,Sardigna/Sardegna,39.1426981,8.3026639
Osteria Ricanatti,Ostuni,Puglia,40.727631,17.576406
SaQua by Il Frantoio,Montescudaio,Toscana,43.3262785,10.6269946
TerraMadre,Nettuno,Lazio,41.4575382,12.661425
Locanda de Banchieri,Fosdinovo,Toscana,44.13382,10.018869
Lillotatini,Panicale,Umbria,43.0290588,12.0983637
Exé Restaurant,Fiorano Modenese,Emilia-Romagna,44.539143,10.8118482
Il Calandrino,Rubano,Veneto,45.4287288,11.7882736
Piazza dei Mestieri,Turin,Piemonte,45.0677551,7.6824892
Mater Bistrot,Milan,Lombardia,45.4641943,9.1896346
Colline Ciociare,Acuto,Lazio,41.791521,13.174394
Da Poli alla Stazione,Castelnovo di Sotto,Emilia-Romagna,44.8108626,10.5632954
IO Luigi Taglienti,Piacenza,Emilia-Romagna,44.8476352,9.666531257696896
Bruxaboschi,San Desiderio,Piemonte,44.9916798,8.2791464
Marechiaro,Bolzano,Trentino-Alto Adige/Südtirol,46.655945450000004,11.23021287087526
Diana's Place,Rome,Lazio,41.8933203,12.4829321
Marsupino 1901,Briaglia,Piemonte,44.3956758,7.8760035
La Cucoma,San Pancrazio,Trentino-Alto Adige/Südtirol,46.5865144,11.0863613
Oro Restaurant,Venice,Veneto,45.4371908,12.3345898
Rueda Gaucha,Lignano Sabbiadoro,Friuli-Venezia Giulia,45.690161,13.1407655
Kitchen,Como,Lombardia,45.939475900000005,9.149410132545793
Osteria Taviani,Bientina,Toscana,43.7101845,10.6203207
Salvo,Naples,Campania,40.8358846,14.2487679
Antiche Sere,Turin,Piemonte,45.0677551,7.6824892
Trattoria Leoni,Barbian,Trentino-Alto Adige/Südtirol,46.6035817,11.5200062
Grow Restaurant,Albiate,Lombardia,45.6589901,9.2557963
Casa Coppelle,Rome,Lazio,41.8933203,12.4829321
AceroRosso,Vodo di Cadore,Veneto,46.419622,12.244899
Bislakko,Vercelli,Piemonte,45.55538265,8.346283678327271
Il Doretto,Cecina,Toscana,43.3113449,10.5173443
Flurin,Glorenza,Trentino-Alto Adige/Südtirol,46.6714924,10.5539127
Podere 39,Florence,Toscana,43.7697955,11.2556404
Trattoria alla Pergola,Fagnano,Lombardia,45.417155,8.9967076
Da Cesare,Rome,Lazio,41.8933203,12.4829321
Quattro Passi,Marina del Cantone,Campania,40.5834446,14.3552271
Casa D'Angelo,Fara Filiorum Petri,Abruzzo,42.2490311,14.1861364
Ego,Matera,Basilicata,40.447641899999994,16.47357384028852
San Michele,Fagagna,Friuli-Venezia Giulia,46.1134401,13.0845716
Bites,Milan,Lombardia,45.4641943,9.1896346
Cascina Vittoria,Rognano,Lombardia,45.2877916,9.0898708
La Locanda del Cardinale,Assisi,Umbria,43.0711952,12.6146669
Ai Porteghi Bistrot,Padua,Veneto,45.4077172,11.8734455
Sedicesimo Secolo,Pudiano,Lombardia,45.3992432,10.0084067
Antica Osteria il Ronchettino,Milan,Lombardia,45.4641943,9.1896346
Le Vele,Misano Adriatico,Emilia-Romagna,43.9774954,12.6986947
Osteria da Nando,Aosta,Valle d'Aosta / Vallée d'Aoste,45.7370885,7.3196649
Primo Restaurant,Lecce,Puglia,40.152217300000004,18.2260628338229
Caruso Roof Garden,Naples,Campania,40.8358846,14.2487679
Locanda Marchesani,Pomezia,Lazio,41.667529,12.5047863
Almondo Trattoria,Turin,Piemonte,45.0677551,7.6824892
Osteria la Lanterna,Valsolda,Lombardia,46.029095299999994,9.043912334526064
Vecchia Lama,Lama Mocogno,Emilia-Romagna,44.3072628,10.7317768
Seta Sushi Restaurant,Bologna,Emilia-Romagna,44.4938203,11.3426327
La Kucina,Foggia,Puglia,41.50281055,15.452893911491383
L'Acchiatura,Racale,Puglia,39.963119,18.093826
Aquadulcis,Vallo della Lucania,Campania,40.229704,15.26576
La Conchiglia d'Oro,Pineto,Abruzzo,42.6077714,14.0671028
Il Flauto di Pan,Ravello,Campania,40.6496643,14.6122753
Osteria del Mirasole,San Giovanni in Persiceto,Emilia-Romagna,44.6386593,11.1874019
Acqua,Vieste,Puglia,41.8827595,16.1791791
Palais Royal Restaurant,Venice,Veneto,45.4371908,12.3345898
Estro Vino e Cucina,Venice,Veneto,45.4371908,12.3345898
Osteria Grande,Arezzo,Toscana,43.51714415,11.763928194732205
Vignamare,Andora,Liguria,43.9519286,8.1456487
Acqua Pazza,Bologna,Emilia-Romagna,44.4938203,11.3426327
177 toledo,Naples,Campania,40.8358846,14.2487679
Locanda Belvedere,Saludecio,Emilia-Romagna,43.8726846,12.6685074
Due Camini,Savelletri,Puglia,40.8730304,17.4089613
Per Me Giulio Terrinoni,Rome,Lazio,41.8933203,12.4829321
Dissapore di Andrea Catalano,Carovigno,Puglia,40.7071852,17.656848
Locanda Martinelli,Nibbiaia,Toscana,43.4639716,10.4168107
Mamma Rosa,San Polo d'Enza,Emilia-Romagna,44.6258624,10.4222874
Locanda Stella d'Oro,Soragna,Emilia-Romagna,44.9281878,10.1235973
Reale,Castel di Sangro,Abruzzo,41.7842727,14.1080639
La Baita,Faenza,Emilia-Romagna,44.2855555,11.8832055
Principe Cerami,Taormina,Sicilia,37.8512218,15.2830191
Menegaldo,Monastier di Treviso,Veneto,45.6500759,12.4337702
Osteria dell'Accademia,Montegridolfo,Emilia-Romagna,43.8589996,12.6885114
I Tenerumi,Isola Vulcano,Sicilia,38.399538699999994,14.967380329838809
Essenza,Terracina,Lazio,41.2871196,13.2492009
Il Rivale al Lago,Padenghe sul Garda,Lombardia,45.509584,10.506376
Tre Noci,Spirano,Lombardia,45.582078,9.668856
La Stüa de Michil,Corvara in Badia,Trentino-Alto Adige/Südtirol,46.5495743,11.8740339
La Porta Antica,Brescia,Lombardia,45.77958045,10.4258729694612
Osteria Borsò Gambrinus,San Polo di Piave,Veneto,45.7901075,12.3947754
Osteria Altran,Ruda,Friuli-Venezia Giulia,45.8382313,13.4019302
La Lumira,Castelfranco Emilia,Emilia-Romagna,44.5949319,11.0528375
Opificio,Noventa Padovana,Veneto,45.4142322,11.9507999
Locanda del Falco,Rivalta Trebbia,Emilia-Romagna,44.9523277,9.5865686
Contaminazioni Restaurant,Somma Vesuviana,Campania,40.8716147,14.4361417
I 5 Sensi,Cuneo,Piemonte,44.45807035,7.558136691151624
Vineria Derthona,Tortona,Piemonte,44.89666,8.8641282
De Gustibus - Maurizio,Palmi,Calabria,38.3574488,15.8465649
Fana Ladina,San Vigilio di Marebbe,Trentino-Alto Adige/Südtirol,46.6979997,11.9312299
Ca' del Profeta,Montaldo Scarampi,Piemonte,44.830345,8.2590523
Il Frantoio,Colle di Val d'Elsa,Toscana,43.4226455,11.126394
1908,Soprabolzano,Trentino-Alto Adige/Südtirol,46.5295495,11.4063468
Lord Nelson,Chiavari,Liguria,44.3164494,9.3233382
Campo del Drago,Montalcino,Toscana,43.0575578,11.4902818
Osteria Il Granaio,Rapolano Terme,Toscana,43.2865495,11.6044699
Orto,Monopoli,Puglia,40.9522369,17.299948
Osteria Bakaré,Peschiera del Garda,Veneto,45.4389454,10.6920171
Taverna del Capitano,Marina del Cantone,Campania,40.5834446,14.3552271
La Gallina,Gavi,Piemonte,44.687649,8.809353
Vescovo Moro,Verona,Veneto,45.442497700000004,10.985737689444763
Antica Locanda dell'Orco,Rivarolo Canavese,Piemonte,45.3320235,7.7230498
Chicco di Grano,Castel Mella,Lombardia,45.4995922,10.1450083
La Dispensa di Armatore,Cetara,Campania,40.6482139,14.7004154
D'O,Cornaredo,Lombardia,45.5016851,9.025746
Al Cambio,Bologna,Emilia-Romagna,44.4938203,11.3426327
Coquus,Lucera,Puglia,41.5082727,15.3376465
Taverna La Cialoma,Marzamemi,Sicilia,36.7418376,15.1176543
Oscar,Ardenza,Toscana,43.521789749999996,10.317725579534647
Casa Perbellini 12 Apostoli,Verona,Veneto,45.442497700000004,10.985737689444763
Badessa,Casalgrande,Emilia-Romagna,44.5880091,10.7373209
Tilia,Toblach,Trentino-Alto Adige/Südtirol,46.735425,12.2242801
Trattoria da Me,Bologna,Emilia-Romagna,44.4938203,11.3426327
Bove's,Cuneo,Piemonte,44.45807035,7.558136691151624
Gabbiano 1983,Corte de' Cortesi,Lombardia,45.273174,10.007869
La Locanda dei Narcisi,Pozzolo Formigaro,Piemonte,44.7951536,8.7848493
Bottega Aleotti,Crevalcore,Emilia-Romagna,44.72057,11.149804
La Gioconda,Cagli,Marche,43.5457373,12.6517877
Cavour,Dossobuono,Veneto,45.3961961,10.9129306
Clandestino Susci Bar,Portonovo,Emilia-Romagna,44.5320023,11.7519593
La Quartina,Mergozzo,Piemonte,45.96128,8.4495252
La Tortuga,Gargnano,Lombardia,45.688138,10.6635006
Collina,Almenno San Bartolomeo,Lombardia,45.742681,9.582251
Iacobucci,Castel Maggiore,Emilia-Romagna,44.575685,11.3648104
Voltalacarta,Genoa,Liguria,44.40726,8.9338624
Josè Restaurant - Tenuta Villa Guerra,Torre del Greco,Campania,40.7879211,14.3682813
Alla Pasina,Dosson,Veneto,45.635443,12.2513451
Silene,Seggiano,Toscana,42.928832,11.558242
Cucina Bacilieri,Ferrara,Emilia-Romagna,44.766764249999994,11.827938995640167
Veranda,Cesenatico,Emilia-Romagna,44.1999283,12.3969692
Rio Bistrot,Riomaggiore,Liguria,44.0989747,9.7386704
Villa Naj,Stradella,Lombardia,45.0773563,9.2950171
Trattoria da Fagiolino,Cutigliano,Toscana,44.1000536,10.7557252
Pierino Penati,Vigano,Lombardia,45.7246346,9.3245602
Qafiz,Santa Cristina d'Aspromonte,Calabria,38.255372,15.970499
Materia | Spazio Cucina,Catania,Sicilia,37.5023612,15.0873718
Gabbiano 3.0,Marina di Grosseto,Toscana,42.71785,10.9810013
Trattoria Battibecco,Bologna,Emilia-Romagna,44.4938203,11.3426327
Il Frantoio,Assisi,Umbria,43.0711952,12.6146669
85 Bistrot,Sesto San Giovanni,Lombardia,45.5357218,9.2376549
Atto di Vito Mollica,Florence,Toscana,43.7697955,11.2556404
Locanda Baggio,Asolo,Veneto,45.8007265,11.9142444
Podere Belvedere Tuscany,Pontassieve,Toscana,43.7738313,11.4346286
Al Sorriso,Soriso,Piemonte,45.7417373,8.4097034
Zappatori,Pinerolo,Piemonte,44.8873086,7.3319454
Il Principe,Pompei,Campania,40.7491267,14.5006415
Pacifico,Milan,Lombardia,45.4641943,9.1896346
Michelasso,Naples,Campania,40.8358846,14.2487679
Caffè La Crepa,Isola Dovarese,Lombardia,45.1762691,10.3129568
Stube Hermitage,Madonna di Campiglio,Trentino-Alto Adige/Südtirol,46.2269942,10.8270157
La Locanda del Falco,Valdieri,Piemonte,44.277626,7.397631
Salsedine367,Lido di Savio,Emilia-Romagna,44.3101326,12.3430734
Hydra,Salerno,Campania,40.419441649999996,15.310608468834516
Lu Pisantinu,Arzachena,Sardigna/Sardegna,41.079898,9.3876122
Retroscena,Porto San Giorgio,Marche,43.1826562,13.7933863
Al Grop,Tavagnacco,Friuli-Venezia Giulia,46.1273936,13.2140999
Osteria Antico Brolo,Gardone Riviera,Lombardia,45.6187853,10.5591005
Altriménti,Milan,Lombardia,45.4641943,9.1896346
Serendib,Milan,Lombardia,45.4641943,9.1896346
20Tre,Genoa,Liguria,44.40726,8.9338624
L'Imbuto,Lucca,Toscana,44.017763900000006,10.454430026192636
Antica Osteria Cera,Lughetto,Veneto,45.3827635,12.1290707
L'Osteria dell'Orologio,Fiumicino,Lazio,41.7712145,12.2278855
Da Gregorio,Morrano Nuovo,Umbria,42.7703374,12.1325935
Da Nilo,Cetona,Toscana,42.964431,11.9004535
L'A Gourmet L'Accademia,Reggio Calabria,Calabria,38.1035389,15.6397556
Pinocchio,Borgomanero,Piemonte,45.6989107,8.4623673
Osteria da Pietro,Castiglione delle Stiviere,Lombardia,45.3896766,10.4888745
Da Vincenzo,Positano,Campania,40.6286581,14.4854955
Next2,Positano,Campania,40.6286581,14.4854955
Osteria degli Assonica,Sorisole,Lombardia,45.7445793,9.6611952
Sot'Ajarchi,Ancona,Marche,43.4801189,13.218727943815642
Essencia Restaurant,Naples,Campania,40.8358846,14.2487679
Sottovoce,Como,Lombardia,45.939475900000005,9.149410132545793
Bel Ami,Maglie,Puglia,40.1184626,18.2988529
Duomo,Ragusa,Sicilia,36.9256833,14.7307456
DanielCanzian,Milan,Lombardia,45.4641943,9.1896346
Cantina dei Cacciatori,Monteu Roero,Piemonte,44.7806865,7.9311892
Molteni,Adria,Veneto,45.0531228,12.0572
med,Treviso,Veneto,45.806691349999994,12.206315763116372
Il Desco,Verona,Veneto,45.442497700000004,10.985737689444763
Gusto by Sadler,San Teodoro,Sicilia,37.8459539,14.7020201
Saporium,Chiusdino,Toscana,43.154634,11.084228
Casa Format,Orbassano,Piemonte,45.0072629,7.5369192
Antica Trattoria da Miculan,Tricesimo,Friuli-Venezia Giulia,46.1605618,13.2125359
Januarius,Naples,Campania,40.8358846,14.2487679
L'Osteria della Trippa,Rome,Lazio,41.8933203,12.4829321
Nido del Picchio,Carpaneto Piacentino,Emilia-Romagna,44.9152116,9.7880952
Il Sereno Al Lago,Torno,Lombardia,45.857591,9.1162943
Impronta,Albairate,Lombardia,45.4211259,8.9381357
Le Nove Scodelle,Milan,Lombardia,45.4641943,9.1896346
Il Piraña,Prato,Toscana,43.935718050000006,11.09414726770089
Riccio Restaurant,Bacoli,Campania,40.7966129,14.0777834
La Terrazza,Torbole,Lombardia,45.512581,10.115467
Il Fico trentacareghe,Lerici,Liguria,44.0736073,9.9099135
Casu Osteria Contemporanea,Giarre,Sicilia,37.726857,15.187688
Luciano Cucina Italiana,Rome,Lazio,41.8933203,12.4829321
Trattoria al Ponte,Lusia,Veneto,45.1005351,11.6627796
Il Pellicano,Porto Ercole,Toscana,42.3959698,11.2025043
Trattoria da Paeto,Pianiga,Veneto,45.4560955,12.0301727
Quattro Gigli,Montopoli in Val d'Arno,Toscana,43.6702986,10.7608316
Palazzo Utini,Noceto,Emilia-Romagna,44.8099007,10.1772596
Lanzani Bottega & Bistrot,Brescia,Lombardia,45.77958045,10.4258729694612
Ca' Del Moro,Grezzana,Veneto,45.5185311,11.0161587
SOMS,Pescara,Abruzzo,42.3102619,13.95759010584892
Vineria Modì,Taormina,Sicilia,37.8512218,15.2830191
Lo Scudiero,Pesaro,Marche,43.9098114,12.9131228
QuarantunoDodici,Fiumicino,Lazio,41.7712145,12.2278855
Locanda delle Grazie,Grazie,Lombardia,45.1551648,10.693944
Miseria e Nobiltà,Campobasso,Molise,41.717264799999995,14.826226697820019
Lanterna Verde,Villa di Chiavenna,Lombardia,46.3310232,9.4894492
President,Pompei,Campania,40.7491267,14.5006415
Trattoria di Coronate,Morimondo,Lombardia,45.3524418,8.9548111
L'Archivolto - Osteria Nostrale,Ovada,Piemonte,44.638346,8.64525
Villa Feltrinelli,Gargnano,Lombardia,45.688138,10.6635006
Malga Roncac,Moena,Trentino-Alto Adige/Südtirol,46.3769434,11.6592663
Bistrot,Forte dei Marmi,Toscana,43.9595891,10.1699392
Casa del Vino della Vallagarina,Isera,Trentino-Alto Adige/Südtirol,45.8852695,11.0093106
ES Cantina&Ristorante,Manduria,Puglia,40.401825,17.633511
L'Aia dei Cappellani,Trecchina,Basilicata,40.0256576,15.7767873
Trattoria Porteri,Brescia,Lombardia,45.77958045,10.4258729694612
Trequarti,Val Liona,Veneto,45.410202,11.4720786
Carlo e Camillo,Turin,Piemonte,45.0677551,7.6824892
Locanda Radici,Melizzano,Campania,41.1605703,14.5053103
Charleston,Palermo,Sicilia,38.1112268,13.3524434
Matteo Ristorante,Biella,Piemonte,45.5669538,8.086912008297636
Forme Restaurant,Brescia,Lombardia,45.77958045,10.4258729694612
Li Lioni,Porto Torres,Sardigna/Sardegna,40.8370333,8.4013292
Antica Trattoria Cattivelli,Monticelli d'Ongina,Emilia-Romagna,45.0895109,9.9331646
Aria,Lavagna,Liguria,44.3121536,9.3417059
Taverna dell'Oca,Turin,Piemonte,45.0677551,7.6824892
Malenco,Chiesa in Valmalenco,Lombardia,46.2640846,9.8496555
Antiche Carampane,Venice,Veneto,45.4371908,12.3345898
La Villa,Melfi,Basilicata,40.9961268,15.6556545
Rifugio Col Alt,Corvara in Badia,Trentino-Alto Adige/Südtirol,46.5495743,11.8740339
La Veranda,Cernobbio,Lombardia,45.8413945,9.0759048
Gunè San Frediano,Florence,Toscana,43.7697955,11.2556404
Magorabin,Turin,Piemonte,45.0677551,7.6824892
Gourmetstube Einhorn,Mules,Trentino-Alto Adige/Südtirol,46.8549387,11.5238006
Almatò,Rome,Lazio,41.8933203,12.4829321
Menabò Vino e Cucina,Rome,Lazio,41.8933203,12.4829321
Langosteria Paraggi,Paraggi,Liguria,44.3115731,9.208602
La Cucina de' Mibabbo,Milan,Lombardia,45.4641943,9.1896346
Il Faggio,Pollone,Piemonte,45.579763,8.005919
Osmosi,Montepulciano,Toscana,43.0945279,11.7826795
Ventuno.1,Alba,Piemonte,44.7007236,8.0357786
Il Merlo,Lido di Camaiore,Toscana,43.8948357,10.2302866
Giannino dal 1899,Milan,Lombardia,45.4641943,9.1896346
Casamatta,Manduria,Puglia,40.401825,17.633511
San Giorgio,Genoa,Liguria,44.40726,8.9338624
/gu.stà.re/ oltrecucina,Borgomanero,Piemonte,45.6989107,8.4623673
Cavallino,Maranello,Emilia-Romagna,44.5255217,10.8663607
Repubblica di Perno,Monforte d'Alba,Piemonte,44.582438,7.969637
Benedikto,Assisi,Umbria,43.0711952,12.6146669
Osteria del Miglio 2.10,Pieve San Giacomo,Lombardia,45.130272,10.186275
Antica Osteria Moirago,Moirago,Lombardia,45.3693259,9.1374907
L'800,Argelato,Emilia-Romagna,44.64157,11.34781
Bon Wei,Milan,Lombardia,45.4641943,9.1896346
Pomiroeu,Seregno,Lombardia,45.649723,9.2053999
da Omar,Lido di Jesolo,Veneto,45.5033028,12.6324412
La Risacca Blu,Milan,Lombardia,45.4641943,9.1896346
La Palta,Borgonovo Val Tidone,Emilia-Romagna,45.014362,9.443461
La Braja,Montemagno,Piemonte,44.983701,8.3235786
Bàcaro Il Gusto,Fossò,Veneto,45.3856495,12.048577
Perbacco,Pisciotta,Campania,40.108902,15.234561
Da Politano,Boves,Piemonte,44.3296258,7.5518938
San Giorgio,Umbertide,Umbria,43.3056365,12.3366222
La Pajara Gourmet,Fiera di Primiero,Trentino-Alto Adige/Südtirol,46.1770769,11.829606
Controcorrente,Morciano di Romagna,Emilia-Romagna,43.913748,12.6460672
La Coccinella,Serravalle Langhe,Piemonte,44.559239,8.058639
Tivoli,Cortina d'Ampezzo,Veneto,46.5383332,12.1373506
Mogano,Formello,Lazio,42.082521,12.400273
Old Friend,Cagliari,Sardigna/Sardegna,39.2171994,9.113311
Il Pescatore,Cala Gonone,Sardigna/Sardegna,40.2820879,9.6343396
Romanè,Rome,Lazio,41.8933203,12.4829321
Nana Piccolo Bistrò,Senigallia,Marche,43.7149517,13.2179488
Elementi,Torgiano,Umbria,43.028542,12.44136
La Terrazza,Asolo,Veneto,45.8007265,11.9142444
Dal Pescatore,Runate,Lombardia,45.1709096,10.356996
Al Dragone,Vieste,Puglia,41.8827595,16.1791791
L'Ambasciata,Quistello,Lombardia,45.0065791,10.9804599
Miramonti l'Altro,Concesio,Lombardia,45.605184,10.216967
Kisté - Easy Gourmet,Taormina,Sicilia,37.8512218,15.2830191
La Perla del Mare,San Vincenzo,Toscana,43.1006951,10.5387914
Stube Gourmet,Asiago,Veneto,45.8753771,11.5106998
Casin del Gamba,Altissimo,Veneto,45.614739,11.2512582
Trattoria Ai Due Platani,Coloreto,Emilia-Romagna,44.7689188,10.3795728
Strattoria,Montrigiasco,Piemonte,45.7716843,8.5116697
La Veranda,Moltrasio,Lombardia,45.874050249999996,9.091480319324706
Locanda dei Cantù,Carona,Lombardia,46.02139,9.78285
Sushisen,Rome,Lazio,41.8933203,12.4829321
Dolia Gaeta,Gaeta,Lazio,41.218312,13.56281
Taverna Kerkira,Bagnara Calabra,Calabria,38.288471,15.807795
La Sponda,Positano,Campania,40.6286581,14.4854955
Osteria dai Coghi,Albarè di Costermano,Veneto,45.5731613,10.7577409
Due Colombe,Borgonato,Lombardia,45.6210092,10.0171005
Piano35,Turin,Piemonte,45.0677551,7.6824892
L'Arcangelo,Rome,Lazio,41.8933203,12.4829321
Osteria della Tana,Asiago,Veneto,45.8753771,11.5106998
L'Uva e il Malto,Grosseto,Toscana,42.7751102,11.287804427628437
Antica Osteria,Ossana,Trentino-Alto Adige/Südtirol,46.3064533,10.7377007
Dolce Stil Novo alla Reggia,Venaria Reale,Piemonte,45.1348114,7.6268658
La Cantina di Manuela,Milan,Lombardia,45.4641943,9.1896346
Erbaluigia,Pisa,Toscana,43.4714722,10.679791173704576
Ippogrifo,Genoa,Liguria,44.40726,8.9338624
Stefano Mocellin al Padovanino,Padua,Veneto,45.4077172,11.8734455
Vecchio Porto,Villa San Giovanni,Calabria,38.2180591,15.638486
Lucia,Giulianova Lido,,,
Terre Alte,Longiano,Emilia-Romagna,44.0743778,12.3274733
l' Ciocio - Osteria di Suvereto,Suvereto,Toscana,43.079015,10.6786806
MaMe Restaurant,Viareggio,Toscana,43.8672392,10.2506055
Umberto a Mare,Forio,Campania,40.7368416,13.8581354
Essenza Bistrot,Olbia,Sardigna/Sardegna,40.9232659,9.5027442
ARIA,Naples,Campania,40.8358846,14.2487679
Hazama,Milan,Lombardia,45.4641943,9.1896346
Sa Corte,Oliena,Sardigna/Sardegna,40.27226,9.403036
Osteria Boccolicchio,Manfredonia,Puglia,41.6254728,15.9095926
Rosselli 77,Cuorgnè,Piemonte,45.3897204,7.6498168
Il Colmetto,Rodengo Saiano,Lombardia,45.5976458,10.1094679
L'Oste e il Sacrestano,Licata,Sicilia,37.1016426,13.9376618
Shalai,Linguaglossa,Sicilia,37.8409138,15.1437161
Muraglia - Conchiglia d'Oro,Varigotti,Liguria,44.1824374,8.3953613
Hostaria Ducale,Genoa,Liguria,44.40726,8.9338624
Rosmarino,Genoa,Liguria,44.40726,8.9338624
L'Officina,Perugia,Umbria,43.1070321,12.402996209906487
Il Poggio Rosso,Castelnuovo Berardenga,Toscana,43.3455237,11.5018883
Portanova,Urbino,Marche,43.7262608,12.6363135
Achilli al Parlamento,Rome,Lazio,41.8933203,12.4829321
Il Tartufo,Revere,Lombardia,45.053478,11.131298
Hostaria del Vicolo,Sciacca,Sicilia,37.5064786,13.0823323
Da Tonino,Capri,Campania,40.5488429,14.228370814497762
I Tigli,San Bonifacio,Veneto,45.3956425,11.2700817
Oberlechner,Algund,Trentino-Alto Adige/Südtirol,46.6825194,11.1230691
i-Fame,Rimini,Emilia-Romagna,43.946543250000005,12.630749019254939
Entrà,Finale Emilia,Emilia-Romagna,44.834574,11.293905
Trattoria Losanna,Masio,Piemonte,44.869649,8.407741
Malga Panna,Moena,Trentino-Alto Adige/Südtirol,46.3769434,11.6592663
La RiMa,Novara,Piemonte,45.584250049999994,8.545996970894572
Il Riccio,Anacapri,Campania,40.555713,14.2136104
Tenuta Casa Virginia,Villa d'Almè,Lombardia,45.749682,9.614451
Alle Codole,Canale d'Agordo,Veneto,46.3600576,11.9150952
Asina Luna,Peschiera Borromeo,Lombardia,45.4318465,9.311479
Sapereta,Porto Azzurro,Toscana,42.7662978,10.3957529
Carlo Magno,Collebeato,Lombardia,45.5813147,10.2102711
Enoteca di Canelli - Casa Crippa,Canelli,Piemonte,44.7192779,8.2871375
Feva,Castelfranco Veneto,Veneto,45.6711936,11.9265094
Al Baccanale,Piombino,Toscana,42.9231662,10.5268192
Il Grifone,Castel San Pietro Terme,Emilia-Romagna,44.4012699,11.5854987
Amistà,Corrubbio,Veneto,45.4762663,11.2549782
Patauner,Settequerce,Trentino-Alto Adige/Südtirol,46.5110373,11.2745028
SottoSopra,Baveno,Piemonte,45.9089158,8.5050171
ZELO,Milan,Lombardia,45.4641943,9.1896346
La Bucaccia,Cortona,Toscana,43.2752976,11.9850623
Baita Fraina,Cortina d'Ampezzo,Veneto,46.5383332,12.1373506
Retrogusto,Otranto,Puglia,40.1456661,18.490757
San Domenico,Imola,Emilia-Romagna,44.3535145,11.7141233
Dentella,Bracca,Lombardia,45.8238863,9.7078713
Loewengrube,Bolzano,Trentino-Alto Adige/Südtirol,46.655945450000004,11.23021287087526
Walter Redaelli,Bettolle,Toscana,43.206274,11.804331
Locanda Margon,Ravina,Trentino-Alto Adige/Südtirol,46.0386048,11.1108136
Enoteca La Torre,Rome,Lazio,41.8933203,12.4829321
Berton,Milan,Lombardia,45.4641943,9.1896346
Saffron,Arezzo,Toscana,43.51714415,11.763928194732205
Momento al 25,Carpi,Emilia-Romagna,44.7835699,10.8854523
Sibilla,Tivoli,Lazio,41.960922,12.798884
Al Gatto Nero,Burano,Veneto,45.485376599999995,12.417520773688814
Italo Bassi Confusion Restaurant,Porto Cervo,Sardigna/Sardegna,41.1318983,9.5353646
Contraste,Milan,Lombardia,45.4641943,9.1896346
Sissi,Merano,Trentino-Alto Adige/Südtirol,46.6695547,11.1594185
Doc,Borgio Verezzi,Liguria,44.164968200000004,8.306662116087459
Tre Noghere,Bigolino,Veneto,45.8685885,12.0127676
Antica Fattoria del Grottaione,Castel del Piano,Toscana,42.8932352,11.5383804
Il Portico,Appiano Gentile,Lombardia,45.7346371,8.979101
Cucine Nervi,Gattinara,Piemonte,45.6142424,8.3711382
Rimulas,Voghera,Lombardia,44.9926704,9.0086667
21.9,Piobesi d'Alba,Piemonte,44.7350191,7.9796685
Giano,Rome,Lazio,41.8933203,12.4829321
Enoteca Del Duca,Volterra,Toscana,43.400337,10.860019
Casa Leali,Puegnago sul Garda,Lombardia,45.56938895,10.510107562189347
Posillipo,Gabicce Monte,Marche,43.964191,12.7734292
Al Capitan della Cittadella,Verona,Veneto,45.442497700000004,10.985737689444763
Locanda Cacciatori,Ponte dell'Olio,Emilia-Romagna,44.867361,9.642268
Un Piano nel Cielo,Praiano,Campania,40.611107,14.53134
Vecchia Sorni,Sorni,Trentino-Alto Adige/Südtirol,46.1756007,11.123254
Between,Rivoli,Piemonte,45.0697151,7.5176764
Olmo,Cornaredo,Lombardia,45.5016851,9.025746
Un Posto a Milano,Milan,Lombardia,45.4641943,9.1896346
Al Piave,Mariano del Friuli,Friuli-Venezia Giulia,45.9160611,13.458748
Trattoria da Zamboni,Lapio,Campania,40.981117,14.946344
Octavin,Arezzo,Toscana,43.51714415,11.763928194732205
Felix Lo Basso home & restaurant,Milan,Lombardia,45.4641943,9.1896346
InAlto Alfio Ghezzi Dolomites,Moena,Trentino-Alto Adige/Südtirol,46.3769434,11.6592663
Il Mirto,Forio,Campania,40.7368416,13.8581354
Trattoria del Bivio,Cerretto Langhe,Piemonte,44.574839,8.09794
Consorzio,Turin,Piemonte,45.0677551,7.6824892
Vecchio Ristoro,Aosta,Valle d'Aosta / Vallée d'Aoste,45.7370885,7.3196649
Pellico 3,Milan,Lombardia,45.4641943,9.1896346
Osteria degli Angeli,Malnate,Lombardia,45.8000916,8.8781675
Balìce,Milazzo,Sicilia,38.2208049,15.2415129
Da Nicolo,Carloforte,Sardigna/Sardegna,39.1426981,8.3026639
Mima,Vico Equense,Campania,40.6623446,14.4264683
Tancredi,Sirmione,Lombardia,45.4688494,10.6078237
Anima,Milan,Lombardia,45.4641943,9.1896346
Opera,Turin,Piemonte,45.0677551,7.6824892
Il Tirabusciò,Bibbiena,Toscana,43.6955475,11.817341
Su Gologone,Oliena,Sardigna/Sardegna,40.27226,9.403036
Brezza fish and chill,Soverato,Calabria,38.687717,16.5500442
Josef Stube,Madonna di Senales,Trentino-Alto Adige/Südtirol,46.722537,10.858376644500439
Quintessenza,Trani,Puglia,41.275088,16.4162585
Bros',Lecce,Puglia,40.152217300000004,18.2260628338229
Castello,Santa Vittoria d'Alba,Piemonte,44.698641,7.937334
Casa Sgarra,Trani,Puglia,41.275088,16.4162585
Kohaku,Rome,Lazio,41.8933203,12.4829321
Da Annetta,Capolago,Lombardia,45.7936297,8.8096689
Guido,Rimini,Emilia-Romagna,43.946543250000005,12.630749019254939
Attico sul Mare,Grottammare,Marche,42.9904967,13.8687605
Locanda San Martino,Chies d'Alpago,Veneto,46.1653278,12.3924722
La Notizia 53,Naples,Campania,40.8358846,14.2487679
Papaveri e Papere,San Miniato,Toscana,43.6797502,10.8500949
Enoteca Meucci,Cortona,Toscana,43.2752976,11.9850623
Osteria dell'Oca Bianca,Cavaglià,Piemonte,45.4077339,8.0934286
CiPASSO,Rome,Lazio,41.8933203,12.4829321
L'Accanto,Vico Equense,Campania,40.6623446,14.4264683
Al Covo,Venice,Veneto,45.4371908,12.3345898
Vitello d'Oro,Udine,Friuli-Venezia Giulia,46.0634632,13.2358377
Iyo Kaiseki,Milan,Lombardia,45.4641943,9.1896346
Konnubio,Florence,Toscana,43.7697955,11.2556404
Al Persef,Livigno,Lombardia,46.5381734,10.1359928
Spoon,Teramo,Abruzzo,42.65811795,13.69787458752063
Già Sotto l'Arco,Carovigno,Puglia,40.7071852,17.656848
Oasis - Sapori Antichi,Vallesaccarda,Campania,41.0627598,15.2517835
Il Papavero,Eboli,Campania,40.6175146,15.0569438
La Peca,Lonigo,Veneto,45.3881155,11.38799
Mezzolitro Vini e Cucina,Rho,Lombardia,45.528878,9.04156
Emozioni,Campobasso,Molise,41.717264799999995,14.826226697820019
A Spurcacciun-a,Savona,Liguria,44.2334238,8.252572737021062
La Pineta,Genoa,Liguria,44.40726,8.9338624
Ai Campi di Marcello,Monfalcone,Friuli-Venezia Giulia,45.8049454,13.5330592
I Carracci,Bologna,Emilia-Romagna,44.4938203,11.3426327
Clemente,Sulmona,Abruzzo,42.0474231,13.927011
La Piemontese,Mariano Comense,Lombardia,45.6971411,9.1784276
Il Convivio Troiani,Rome,Lazio,41.8933203,12.4829321
Il Bikini,Vico Equense,Campania,40.6623446,14.4264683
Faletta 1881,Casale Monferrato,Piemonte,45.1362661,8.4498127
La Posta,Cavour,Piemonte,44.7854988,7.3738413
Villa Tiboldi,Canale,Piemonte,44.7970224,7.9911864
Il Carpaccio,Acri,Calabria,39.493005,16.3849498
Nives,Selva di Val Gardena,Trentino-Alto Adige/Südtirol,46.5551877,11.7600992
AlpiNN,Brunico,Trentino-Alto Adige/Südtirol,46.7963194,11.9355121
I Giardini dei Rodo,Pantelleria,Sicilia,36.8314576,11.9450395
Eea,Ponza,Lazio,40.8932368,12.9630622
Profumi di Cous Cous,San Vito lo Capo,Sicilia,38.172347,12.734932
Acaja,Pinerolo,Piemonte,44.8873086,7.3319454
Forentum,Lavello,Basilicata,41.045625,15.790762
Osteria de' Mercati,Sassari,Sardigna/Sardegna,40.7778499,8.9219725134863
Da Giovanni,Cortina Vecchia,Emilia-Romagna,43.960057,11.8056519
El Primero,Origgio,Lombardia,45.5976933,9.0180613
Contrada Bricconi,Oltressenda Alta,Lombardia,45.9166987,9.9442319
Da Marchesi,Novafeltria,Emilia-Romagna,43.8957266,12.2903985
Hosteria La Cave Cantù,Casteggio,Lombardia,45.0141141,9.1235778
Il Latini,Florence,Toscana,43.7697955,11.2556404
Dama,Cervesina,Lombardia,45.061259,9.016151
Osteria del Borro,San Giustino Valdarno,Toscana,43.5513894,11.7028581
Dulchemente,Olbia,Sardigna/Sardegna,40.9232659,9.5027442
Matteo Grandi in Basilica,Vicenza,Veneto,45.63485905,11.40635425660249
Trattoria della Fortuna,Monterotondo,Lazio,42.0517987,12.6183967
Vascello d'Oro,Carrù,Piemonte,44.481035,7.874437
Al Monastero,Cividale del Friuli,Friuli-Venezia Giulia,46.0936233,13.4303277
Osteria del 36,Parma,Emilia-Romagna,44.6952006,10.097986896904466
SaleGrosso,Milano Marittima,Emilia-Romagna,44.2774759,12.3481763
Bacchus,Olbia,Sardigna/Sardegna,40.9232659,9.5027442
Veneziano,Randazzo,Sicilia,37.8779338,14.9462478
Villetta Annessa,Riva del Garda,Trentino-Alto Adige/Südtirol,45.8847708,10.8396942
Edelweiss,Viceno,Piemonte,46.2303328,8.306971
Stella,Casaglia,Emilia-Romagna,44.9012339,11.5422625
Il Sole di Ranco,Ranco,Lombardia,45.7975913,8.5711349
Riva,Numana,Marche,43.5103436,13.6226368
"Il Giardino ""Da Felicin""",Monforte d'Alba,Piemonte,44.582438,7.969637
Da Miro alla Lanterna,Viareggio,Toscana,43.8672392,10.2506055
Hostaria Uva Rara,Monticelli Brusati,Lombardia,45.6321897,10.0985704
Il Pavone,Alghero,Sardigna/Sardegna,40.5587291,8.3153206
Trattoria Ceriati,Salsomaggiore Terme,Emilia-Romagna,44.814762,9.979576
Locanda Alpina,Brez,Trentino-Alto Adige/Südtirol,46.4309755,11.1082429
Sintesi,Ariccia,Lazio,41.720709,12.6713481
Alessandro Mecca al Castello di Grinzane Cavour,Grinzane Cavour,Piemonte,44.65334,7.995036
Da Felice,Chiavari,Liguria,44.3164494,9.3233382
Casa del Nonno 13,Mercato San Severino,Campania,40.7833028,14.7557276
Giglio,Lucca,Toscana,44.017763900000006,10.454430026192636
La Chandelle,Breuil Cervinia,Valle d'Aosta / Vallée d'Aoste,45.9356034,7.6304397
Belle Parti,Padua,Veneto,45.4077172,11.8734455
Taverna Kus,San Zeno di Montagna,Veneto,45.6314451,10.7254491
Enoteca L'Armadillo,Courmayeur,Valle d'Aosta / Vallée d'Aoste,45.7874248,6.9730618
Capriccio,Augusta,Sicilia,37.2369363,15.2196575
Il Fiorile,Borghetto di Borbera,Piemonte,44.7308921,8.9453314
A' Paranza,Atrani,Campania,40.636908,14.607541
Bagatto,Loano,Liguria,44.1287537,8.2593713
Ristorante Mas-cì,Clusone,Lombardia,45.887088,9.949656
Trattoria del Nuovo Macello,Milan,Lombardia,45.4641943,9.1896346
Acquolina,Rome,Lazio,41.8933203,12.4829321
Osteria Bellavista,Paderno del Grappa,Veneto,45.8281156,11.8577234
Soul & Fish,Sorrento,Campania,40.624906,14.374836
Nole,Pescara,Abruzzo,42.3102619,13.95759010584892
Osteria Bartolini,Cesenatico,Emilia-Romagna,44.1999283,12.3969692
Nni Lausta,Santa Marina Salina,Sicilia,38.56117,14.870772
Romani,Vicomero di Torrile,Emilia-Romagna,44.9165,10.3126
Sa Musciara,Portoscuso,Sardigna/Sardegna,39.207031,8.380931
Castello di Fighine,San Casciano dei Bagni,Toscana,42.8715509,11.8752274
Antica Locanda di Sesto,Ponte a Moriano,Toscana,43.909968,10.5292866
Da Gigetto,Miane,Veneto,45.9443206,12.0938559
Nin,Brenzone sul Garda,Veneto,45.6928612,10.7720118
Magiargè Osteria Contemporanea,Bordighera,Liguria,43.7850512,7.6591094
Al Petes,Trieste,Friuli-Venezia Giulia,45.6496485,13.7772781
Alle Corone,Venice,Veneto,45.4371908,12.3345898
Atelier Moessmer Norbert Niederkofler,Brunico,Trentino-Alto Adige/Südtirol,46.7963194,11.9355121
Buca di Bacco,Pietra Ligure,Liguria,44.152931,8.286552
Menarosti,Trieste,Friuli-Venezia Giulia,45.6496485,13.7772781
Meltemi,Parma,Emilia-Romagna,44.6952006,10.097986896904466
Casa Rispoli,Cava de' Tirreni,Campania,40.7004616,14.7062633
La Nicchia,Cavour,Piemonte,44.7854988,7.3738413
Oberwirt,Marlengo,Trentino-Alto Adige/Südtirol,46.6556318,11.1405342
Marcandole,Salgareda,Veneto,45.704123,12.4925871
Da Odino,Quarto d'Altino,Veneto,45.5804512,12.3705001
Imàgo,Rome,Lazio,41.8933203,12.4829321
Perbacco - Vini e Cucina,Cannara,Umbria,42.994742,12.579363
Paolo Griffa al Caffè Nazionale,Aosta,Valle d'Aosta / Vallée d'Aoste,45.7370885,7.3196649
Gennaro Di Pace,Monforte d'Alba,Piemonte,44.582438,7.969637
Ostaria Pignatelli,Naples,Campania,40.8358846,14.2487679
Sud,Quarto,Campania,40.8771936,14.1401591
Tantris,Novara,Piemonte,45.584250049999994,8.545996970894572
Nuova Roma,Sasso Marconi,Emilia-Romagna,44.3996319,11.247554
Local,Venice,Veneto,45.4371908,12.3345898
El Filò,Pozza di Fassa,Trentino-Alto Adige/Südtirol,46.4302623,11.6867947
Al Segnavento,Zelarino,Veneto,45.5144331,12.2087313
Locanda Sensi,Rivergaro,Emilia-Romagna,44.9102508,9.5965212
Io e Luna,Guarene,Piemonte,44.7394863,8.0348361
Il Cappero,Isola Vulcano,Sicilia,38.399538699999994,14.967380329838809
Trattoria Toscana al Vecchio Forno,San Quirico d'Orcia,Toscana,43.0603953,11.603645
Rifugio Fuciade,San Pellegrino,Umbria,42.7576323,13.1492171
Antico Ristorante Forassiepi,Montecarlo,Toscana,43.8511862,10.6676214
Baita Piè Tofana,Cortina d'Ampezzo,Veneto,46.5383332,12.1373506
Le Cicale in Città,Genoa,Liguria,44.40726,8.9338624
Tavola di Guido,Castellina in Chianti,Toscana,43.4691786,11.2872857
Terrazza Fiorella,Massa Lubrense,Campania,40.6117381,14.3434239
Acquerello,Fagnano Olona,Lombardia,45.6689478,8.8727714
U' Vulesce,Cerignola,Puglia,41.2648121,15.8996651
Cosmo Restaurant,Pompei,Campania,40.7491267,14.5006415
Otto Geleng,Taormina,Sicilia,37.8512218,15.2830191
Bolle,Lallio,Lombardia,45.66638,9.630053
Balzi Rossi,Ventimiglia,Liguria,43.7917623,7.6033131
Il Liberty,Milan,Lombardia,45.4641943,9.1896346
Locanda del Capitano & Tipico Osteria,Montone,Umbria,43.3623727,12.3264425
Jamantè,Polignano a Mare,Puglia,40.9961185,17.2195857
Ratanà,Milan,Lombardia,45.4641943,9.1896346
Butterfly,Marlia,Toscana,43.8919517,10.5548336
San Marco,Canelli,Piemonte,44.7192779,8.2871375
Livello 1,Rome,Lazio,41.8933203,12.4829321
Suinsom,Selva di Val Gardena,Trentino-Alto Adige/Südtirol,46.5551877,11.7600992
Al Bersagliere,Verona,Veneto,45.442497700000004,10.985737689444763
Contesto Alimentare,Turin,Piemonte,45.0677551,7.6824892
Caffè Grande,Rivergaro,Emilia-Romagna,44.9102508,9.5965212
La Locanda del Borgo,Telese,Campania,41.2164141,14.5270004
Gucci Osteria da Massimo Bottura,Florence,Toscana,43.7697955,11.2556404
Antica Corona Reale,Cervere,Piemonte,44.635438,7.791932
La Conchiglia,Arma di Taggia,Liguria,43.8310037,7.8490829
Dolada,Pieve d'Alpago,Veneto,46.1673674,12.3518414
Terra The Magic Place,Sarentino,Trentino-Alto Adige/Südtirol,46.69535665,11.387392520694535
Kosmo Taste the Mountain,Livigno,Lombardia,46.5381734,10.1359928
Da Bibe,Galluzzo,Toscana,43.7361018,11.2252832
Il Narciso,Carrara,Toscana,44.0771026,10.096726
Il Molo,Passignano sul Trasimeno,Umbria,43.1847425,12.136838
Ménage,Catania,Sicilia,37.5023612,15.0873718
Magnolia,Longiano,Emilia-Romagna,44.0743778,12.3274733
Cannavacciuolo Countryside,Ticciano,Campania,40.6453842,14.4539381
Da Sapì,Esine,Lombardia,45.9258392,10.2508308
Di Martino Sea Front Pasta Bar,Naples,Campania,40.8358846,14.2487679
George Restaurant,Naples,Campania,40.8358846,14.2487679
Artifex,Brennero,Trentino-Alto Adige/Südtirol,47.0037399,11.5047991
Terrazza Danieli,Venice,Veneto,45.4371908,12.3345898
Raieü,Cavi di Lavagna,Liguria,44.2908658,9.3779898
Camiano Piccolo,Montefalco,Umbria,42.8918739,12.6500673
Locanda Mariella,Calestano,Emilia-Romagna,44.6007,10.1229945
Antica Trattoria la Grotta dal 1918,Sasso Marconi,Emilia-Romagna,44.3996319,11.247554
Al Convento - Casa Torrente,Cetara,Campania,40.6482139,14.7004154
Terme,Pigna,Liguria,43.9327142,7.6633135
Luigi Pomata,Cagliari,Sardigna/Sardegna,39.2171994,9.113311
Tenuta del Gallo,Macchie,Umbria,43.05538,12.076734
Menzaghi,Fagnano Olona,Lombardia,45.6689478,8.8727714
El Brite di Larieto,Cortina d'Ampezzo,Veneto,46.5383332,12.1373506
Millo Ristorante,Santa Teresa Gallura,Sardigna/Sardegna,41.241377,9.188518
Caracol,Bacoli,Campania,40.7966129,14.0777834
Locanda San Michele,Montorio al Vomano,Abruzzo,42.5827062,13.6325193
Il Baretto,Albignasego,Veneto,45.347492,11.867209
Il Poggio,Poggiridenti,Lombardia,46.1756616,9.9262461
La Maison de Filip,Trento,Trentino-Alto Adige/Südtirol,46.1029536,11.12974249416882
Locanda Solagna,Quero,Veneto,45.9210025,11.9305542
L'Oste Scuro,Verona,Veneto,45.442497700000004,10.985737689444763
Andreina,Loreto,Marche,43.439498,13.6070214
Claudio Ristorante,Fabbrico,Emilia-Romagna,44.8720906,10.8100618
Al Gambero,Calvisano,Lombardia,45.3480525,10.345921
Antonello Colonna Labico,Labico,Lazio,41.789519,12.880888
Campo Cedro,Sienna,Toscana,43.167205949999996,11.467561040475552
Osteria Casale Ferrovia,Carovigno,Puglia,40.7071852,17.656848
Gagini Restaurant,Palermo,Sicilia,38.1112268,13.3524434
Derby Grill,Monza,Lombardia,45.6395418,9.278830418070044
La Perla,Varese,Lombardia,45.839720299999996,8.754133838056571
La Torre,Monselice,Veneto,45.2417684,11.7508534
Sücar Brüsc,Mantua,Lombardia,45.1692628,10.670836515673878
La Locanda del Colonnello,Modica,Sicilia,36.8589209,14.7613018
Osteria Numero 2,Stradella,Lombardia,45.0773563,9.2950171
Trattoria Glisenti,Vello,Lombardia,45.7538277,10.0824156
L'Atelier 26,Saint-Christophe,Valle d'Aosta / Vallée d'Aoste,45.7474199,7.3561685
Mater Terrae,Rome,Lazio,41.8933203,12.4829321
The Cesar,Ladispoli,Lazio,41.9537219,12.0734646
Zeb,Florence,Toscana,43.7697955,11.2556404
Granoturco Bistrot,Castagnole Piemonte,Piemonte,44.8990644,7.566528
Radici,Iseo,Lombardia,45.6598202,10.048788
Toe Drûe,Sestri Ponente,Liguria,44.4249254,8.8499031
L'Argine a Vencò,Dolegna del Collio,Friuli-Venezia Giulia,46.031323,13.4793349
Christian & Manuel,Vercelli,Piemonte,45.55538265,8.346283678327271
Le Chiavi d'Oro,Arezzo,Toscana,43.51714415,11.763928194732205
SaleGrosso,Marciana Marina,Toscana,42.8036083,10.1967676
Aroma,Rome,Lazio,41.8933203,12.4829321
Le Case della Saracca,Monforte d'Alba,Piemonte,44.582438,7.969637
Botero,Crema,Lombardia,45.362828,9.6874573
Ginevra,Ancona,Marche,43.4801189,13.218727943815642
L'Agave,Framura,Liguria,44.2071004,9.5541046
Alex,Marina di Pietrasanta,Toscana,43.9325236,10.2067186
4 Ciance,Cuneo,Piemonte,44.45807035,7.558136691151624
Indigeno,Montepulciano,Toscana,43.0945279,11.7826795
Coppola Rossa,Manfredonia,Puglia,41.6254728,15.9095926
La Parolina,Trevinano,Lazio,42.8221916,11.8709531
Sarri,Imperia,Liguria,43.95837525,7.866742714674276
La Madia,Brione,Lombardia,45.6429228,10.1461559
Corte Visconti,Somma Lombardo,Lombardia,45.6836207,8.7070874
Roscioli,Rome,Lazio,41.8933203,12.4829321
Enotavola,Padua,Veneto,45.4077172,11.8734455
Al Palazzon,Galliera Veneta,Veneto,45.6628395,11.8284875
Locanda Altobelli,Terracina,Lazio,41.2871196,13.2492009
La Sosta di Ottone III,Levanto,Liguria,44.1699056,9.6120397
Baracca - Storica Hostaria,Trebaseleghe,Veneto,45.5918117,12.0509986
Joia,Milan,Lombardia,45.4641943,9.1896346
Le Beccherie,Treviso,Veneto,45.806691349999994,12.206315763116372
Osteria del Viandante,Rubiera,Emilia-Romagna,44.6532007,10.781081
Verbano,Stresa,Piemonte,45.8837277,8.5390268
Ai Mercanti,Venice,Veneto,45.4371908,12.3345898
Zass,Positano,Campania,40.6286581,14.4854955
Il Falconiere,San Martino,Toscana,43.7130588,10.4044808
Il Chiosco di Bacco,Torriana,Emilia-Romagna,43.9858,12.385382
Cavallino,Tortona,Piemonte,44.89666,8.8641282
Al Moro,Marina Di Campo,Toscana,42.761268599999994,10.239226363310935
[bu:r],Milan,Lombardia,45.4641943,9.1896346
Al Vecchio Convento,Varese,Lombardia,45.839720299999996,8.754133838056571
San Lorenzo,Spoleto,Umbria,42.7342971,12.7382035
La Filanda,Asola,Lombardia,45.2211195,10.4130654
Locanda della Luna,San Giorgio del Sannio,Campania,41.0619659,14.8538405
Vespasia,Norcia,Umbria,42.7924117,13.0929279
uovodiseppia Milano,Milan,Lombardia,45.4641943,9.1896346
Nazionale,Vernante,Piemonte,44.245027,7.533834
Ilario Vinciguerra,Gallarate,Lombardia,45.6598951,8.7932013
Coeur de Bois,Cogne,Valle d'Aosta / Vallée d'Aoste,45.6087425,7.3560226
Hidalgo,Postal,Trentino-Alto Adige/Südtirol,46.6075829,11.1933244
Terrazza Gallia,Milan,Lombardia,45.4641943,9.1896346
Fradis Minoris,Pula,Sardigna/Sardegna,39.007433,9.001646
Tamo,Spoltore,Abruzzo,42.4552037,14.1406198
Casa Federici,Montoro,Campania,40.8328763,14.7917765
Cip's Club,Venice,Veneto,45.4371908,12.3345898
Boccadoro,Noventa,Veneto,45.2906283,11.5398835
Osteria de l'Umbreleèr,Cicognolo,Lombardia,45.164573,10.194575
La Bandiera,Civitella Casanova,Abruzzo,42.3646066,13.8891259
Il Convito di Curina,Castelnuovo Berardenga,Toscana,43.3455237,11.5018883
Campocori,Rome,Lazio,41.8933203,12.4829321
Oro Nero,Sauris,Friuli-Venezia Giulia,46.4653657,12.7087174
La Maison du Gourmet,Coloreto,Emilia-Romagna,44.7689188,10.3795728
Locanda da Condo,Col San Martino,Veneto,45.8944326,12.0857457
Oberraindlhof,Madonna di Senales,Trentino-Alto Adige/Südtirol,46.722537,10.858376644500439
Vitique,Greve in Chianti,Toscana,43.5824597,11.3168731
Vecchia Marina,Roseto degli Abruzzi,Abruzzo,42.677577,14.0144636
Andrea Larossa,Turin,Piemonte,45.0677551,7.6824892
Ladinia,Corvara in Badia,Trentino-Alto Adige/Südtirol,46.5495743,11.8740339
Lazzaro 1915,Pontelongo,Veneto,45.2454887,12.0251829
Il Fenicottero Rosa Gourmet,Faenza,Emilia-Romagna,44.2855555,11.8832055
Osteria il Moro,Trapani,Sicilia,38.0173961,12.5160225
Sostansa,Pordenone,Friuli-Venezia Giulia,45.9562503,12.6597197
Il Ridotto,Venice,Veneto,45.4371908,12.3345898
Coltivare,La Morra,Piemonte,44.6384797,7.9325818
Comi 107,Como,Lombardia,45.939475900000005,9.149410132545793
Il Giurista,Perugia,Umbria,43.1070321,12.402996209906487
Amo Bistrot,Verona,Veneto,45.442497700000004,10.985737689444763
Il Buco,Sorrento,Campania,40.624906,14.374836
Razzo,Turin,Piemonte,45.0677551,7.6824892
Osteria Arbustico,Paestum,Campania,40.4216783,15.0148832
La Locanda di Piero,Montecchio Precalcino,Veneto,45.665781,11.563302
Rovello 18,Milan,Lombardia,45.4641943,9.1896346
Borgo Poscolle,Cavazzo Carnico,Friuli-Venezia Giulia,46.3674902,13.0399653
Antico Ristorante Pagnanelli,Castel Gandolfo,Lazio,41.7425222,12.6488774
Dogma,Rome,Lazio,41.8933203,12.4829321
Trattoria del Pesce,Rome,Lazio,41.8933203,12.4829321
Voce Aimo e Nadia,Milan,Lombardia,45.4641943,9.1896346
Lerchner's In Runggen,Saint Lorenzen,Trentino-Alto Adige/Südtirol,46.7771,11.9035
Verso Capitaneo,Milan,Lombardia,45.4641943,9.1896346
La Trattoria Enrico Bartolini,Castiglione della Pescaia,Toscana,42.7639301,10.8790917
Sabir,Zafferana Etnea,Sicilia,37.6932846,15.1064599
Cortile Spirito Santo,Syracuse,Sicilia,37.0646139,15.2907196
Ristorante Da Anita - Chalet Prà delle Nasse,San Martino di Castrozza,Trentino-Alto Adige/Südtirol,46.2623377,11.802828
Foresta,Marina di Pisa,Toscana,43.6724218,10.2727668
Cocchi,Parma,Emilia-Romagna,44.6952006,10.097986896904466
Foresta,Moena,Trentino-Alto Adige/Südtirol,46.3769434,11.6592663
Da Luciano,Passignano sul Trasimeno,Umbria,43.1847425,12.136838
La Cucina di Donna Carmela,Riposto,Sicilia,37.7318901,15.2042214
Antica Trattoria al Gallo 1909,Ravenna,Emilia-Romagna,44.364060699999996,12.059009490863945
Sogno,San Felice del Benaco,Lombardia,45.5895461,10.5517327
RistoFante,Alzano Lombardo,Lombardia,45.7336026,9.730494
Locanda del Feudo,Castelvetro di Modena,Emilia-Romagna,44.5034615,10.9432999
Da Oscar,Barcuzzi,Lombardia,45.48458825,10.496664599999999
Osteria La Sangiovesa,Santarcangelo di Romagna,Emilia-Romagna,44.0634029,12.4467143
Glass Hostaria,Rome,Lazio,41.8933203,12.4829321
Il Gusto di Xinge,Florence,Toscana,43.7697955,11.2556404
Da Concettina ai Tre Santi,Naples,Campania,40.8358846,14.2487679
Sichelburg,Pfalzen,Trentino-Alto Adige/Südtirol,46.8119803,11.8840064
Hebbo Wine & Deli,Toblach,Trentino-Alto Adige/Südtirol,46.735425,12.2242801
La Madia,Licata,Sicilia,37.1016426,13.9376618
Il Cipresso - Da Cioni,Loro Ciuffenna,Toscana,43.5922862,11.6330068
Krèsios,Telese,Campania,41.2164141,14.5270004
Madama Vigna,Baldichieri d'Asti,Piemonte,44.9059484,8.0916378
Degusteria Italiana,Florence,Toscana,43.7697955,11.2556404
Enoteca San Nicola,Bobbio,Emilia-Romagna,44.769273,9.3862814
Zash,Archi,Abruzzo,42.089937,14.381217
Il Moro,Capriata d'Orba,Piemonte,44.727849,8.69085
Vite,Coriano,Emilia-Romagna,43.965186,12.602374
Ensama Pesce,Sala Bolognese,Emilia-Romagna,44.629603,11.272747686018814
Il Grano di Pepe,Ravarino,Emilia-Romagna,44.7240342,11.099811
Ristorante del Lago,Bagno di Romagna,Emilia-Romagna,43.8352272,11.9595985
Trattoria alla Ruota,Negrar,Veneto,45.5296706,10.9400217
Lapprodo,Vibo Valentia Marina,Calabria,38.7171569,16.122789
La Taverna del Leone,Positano,Campania,40.6286581,14.4854955
La Veranda del Color,Bardolino,Veneto,45.5475595,10.7242145
S'Andira,Santa Reparata,Abruzzo,42.8046378,13.6957698
Salvo Cacciatori,Oneglia,Liguria,43.8890575,8.0404426
Remo Villa Cariolato,Vicenza,Veneto,45.63485905,11.40635425660249
Regina Lucia,Syracuse,Sicilia,37.0646139,15.2907196
Impronta d'Acqua,Cavi di Lavagna,Liguria,44.2908658,9.3779898
Forte del 48,San Donà di Piave,Veneto,45.6294811,12.5641057
Il Centro,Priocca,Piemonte,44.7871846,8.0616451
Osteria dei Vespri,Palermo,Sicilia,38.1112268,13.3524434
"Osteria del Mare già il ""Votapentole""",Castiglione della Pescaia,Toscana,42.7639301,10.8790917
Cacciani,Frascati,Lazio,41.8082452,12.6803684
Radici,Modica,Sicilia,36.8589209,14.7613018
Pierre Alexis 1877,Courmayeur,Valle d'Aosta / Vallée d'Aoste,45.7874248,6.9730618
Altavilla,Bianzone,Lombardia,46.188197,10.109354
Osteria 1126,Poggibonsi,Toscana,43.4677215,11.148762
Il Tempo Nuovo,Ugento,Puglia,39.926319,18.157428
Battipalo,Lesa,Piemonte,45.829644,8.5648573
Gibas,Pesaro,Marche,43.9098114,12.9131228
Filippo,Pietrasanta,Toscana,43.9589031,10.2332031
Scola,Castelbianco,Liguria,44.1118166,8.0709079
Villa Elena,Bergamo,Lombardia,45.756655699999996,9.754219200862249
Innocenti Wine Experiences,Poggibonsi,Toscana,43.4677215,11.148762
Anna Stuben,Ortisei,Trentino-Alto Adige/Südtirol,46.5752077,11.6721382
Cavallini,San Severino Marche,Marche,43.2290211,13.1779663
Al Borgo,Belluno,Veneto,46.2805407,12.078913722504204
Peperosa,Lucca,Toscana,44.017763900000006,10.454430026192636
Gellius,Oderzo,Veneto,45.7833709,12.4937783
Hostaria di Bricai,Varallo,Piemonte,45.8137306,8.2592113
Hostaria del Pavone,Vasto,Abruzzo,42.12434,14.705923
Acqua,Olgiate Olona,Lombardia,45.6309999,8.8898408
La Foresteria,Menfi,Sicilia,37.606639,12.967843
Le Bistrot,Courmayeur,Valle d'Aosta / Vallée d'Aoste,45.7874248,6.9730618
Al Cavallino Bianco,Polesine Parmense,Emilia-Romagna,45.018108,10.0881543
Osteria L'Abbiccì,Seregno,Lombardia,45.649723,9.2053999
Nobuya,Milan,Lombardia,45.4641943,9.1896346
Cuoco di Bordo,Senigallia,Marche,43.7149517,13.2179488
Santamonica,Genoa,Liguria,44.40726,8.9338624
Osteria la Fefa,Finale Emilia,Emilia-Romagna,44.834574,11.293905
Bistrot 64,Rome,Lazio,41.8933203,12.4829321
Panevin,Feltre,Veneto,46.0163755,11.9062541
Innocenti Evasioni,Milan,Lombardia,45.4641943,9.1896346
Cuculia,Florence,Toscana,43.7697955,11.2556404
Accademia Ristorante,Casale Monferrato,Piemonte,45.1362661,8.4498127
Fratelli Bruzzone,Turin,Piemonte,45.0677551,7.6824892
Incàlmo,Este,Veneto,45.2240069,11.659796
Impronte,Bergamo,Lombardia,45.756655699999996,9.754219200862249
I Portici,Bologna,Emilia-Romagna,44.4938203,11.3426327
Osteria della Chiocciola,Cuneo,Piemonte,44.45807035,7.558136691151624
La Ciau del Tornavento,Treiso,Piemonte,44.6891509,8.0868452
Walser Schtuba,Ponte,Campania,41.214732,14.6963272
Oblige,Vignola,Emilia-Romagna,44.4784141,11.0090928
Cannavacciuolo Le Cattedrali Asti,Asti,Piemonte,44.826012649999996,8.202686328987273
Mildas,Giustino,Trentino-Alto Adige/Südtirol,46.1484401,10.7694794
Langosteria,Milan,Lombardia,45.4641943,9.1896346
Osteria Vecchia Noce,Vicopisano,Toscana,43.6998317,10.5846946
Trattoria Margherita,Arborea,Sardigna/Sardegna,39.7738457,8.5817533
Galileo,Civitanova Marche,Marche,43.3055233,13.7229297
Palazzaccio,Castelbuono,Sicilia,37.9331292,14.0877842
La Favellina,Malo,Veneto,45.660296,11.407493
La Palomba,Orvieto,Umbria,42.7186152,12.1087907
Violetta,Calamandrana,Piemonte,44.7370162,8.3341542
Madonnina del Pescatore,Marzocca,Marche,43.6771367,13.2883479
Gennaro Amitrano,Capri,Campania,40.5488429,14.228370814497762
Il Portolano,Porto San Paolo,Sardigna/Sardegna,40.8763052,9.6294901
Antica Corte Pallavicina,Polesine Parmense,Emilia-Romagna,45.018108,10.0881543
Peter Brunel Ristorante Gourmet,Arco,Trentino-Alto Adige/Südtirol,45.9181327,10.8860953
Lux Lucis,Forte dei Marmi,Toscana,43.9595891,10.1699392
Kandoo Nippon Restaurant,Cremona,Lombardia,45.22086405,10.037037979628856
L'Ortone,Florence,Toscana,43.7697955,11.2556404
Aqua Crua,Barbarano Vicentino,Veneto,45.4093424,11.5409364
Osteria del Posto,Corciano,Umbria,43.1290269,12.287718
Farmacia dei Sani,Ruffano,Puglia,39.9840916,18.2474756
Moebius Sperimentale,Milan,Lombardia,45.4641943,9.1896346
Da Gelsomina,Anacapri,Campania,40.555713,14.2136104
Agorà,Rende,Calabria,39.3319934,16.1843828
Barbieri,Altomonte,Calabria,39.6978818,16.1271277
Onda Blu,San Mauro a Mare,Emilia-Romagna,44.1631101,12.4466459
Aprudia,Giulianova,Abruzzo,42.7534856,13.9667011
Le Trabe,Paestum,Campania,40.4216783,15.0148832
Cetaria,Baronissi,Campania,40.7469385,14.7699874
Taverna Estia,Brusciano,Campania,40.923212,14.423933
Trattoria la Rosa 1908,Sant'Agostino,Piemonte,44.7768347,7.4038907
Vivace,Brescia,Lombardia,45.77958045,10.4258729694612
Piccolo Lord,Turin,Piemonte,45.0677551,7.6824892
Cibus,Ceglie Messapica,Puglia,40.6460444,17.5170566
Casa Coloni,Paestum,Campania,40.4216783,15.0148832
Da Bob Cook Fish,Sorrento,Campania,40.624906,14.374836
San Martino,Scorzè,Veneto,45.5713541,12.108383
Duanima,Cagliari,Sardigna/Sardegna,39.2171994,9.113311
Il Giardino delle Esperidi,Bardolino,Veneto,45.5475595,10.7242145
Apostelstube,Brixen,Trentino-Alto Adige/Südtirol,46.716413,11.657792
Locanda Perbellini,Milan,Lombardia,45.4641943,9.1896346
Bros' Trattoria,Scorrano,Puglia,40.091623,18.299629
Teresa,Pegli,Liguria,44.4271613,8.8149219
Ca' Vittoria,Tigliole,Piemonte,44.886952,8.0753546
Mondschein,Sappada,Friuli-Venezia Giulia,46.571795050000006,12.69543929886029
Al Paradiso,Paradiso di Pocenia,Friuli-Venezia Giulia,45.867906,13.146269
CUCINA.eat,Cagliari,Sardigna/Sardegna,39.2171994,9.113311
Osteria Expanificio,Agrigento,Sicilia,37.3122991,13.57465
3.0 Ciro Cascella,Naples,Campania,40.8358846,14.2487679
Ponte Pietra,Verona,Veneto,45.442497700000004,10.985737689444763
Extra,Carrara,Toscana,44.0771026,10.096726
Casa Rapisarda,Numana,Marche,43.5103436,13.6226368
Stilla,Colognola ai Colli,Veneto,45.4346311,11.1867006
Blum,Taormina,Sicilia,37.8512218,15.2830191
Gratschwirt,Toblach,Trentino-Alto Adige/Südtirol,46.735425,12.2242801
Cocun Cellar Restaurant,San Cassiano,Puglia,40.0562867,18.3339359
Kürbishof,Anterivo,Trentino-Alto Adige/Südtirol,46.279746700000004,11.367961064571444
Idylio by Apreda,Rome,Lazio,41.8933203,12.4829321
Damini Macelleria & Affini,Arzignano,Veneto,45.519292,11.338594
Pulejo,Rome,Lazio,41.8933203,12.4829321
Aimo e Nadia BistRo,Milan,Lombardia,45.4641943,9.1896346
Il Marchese - Osteria Mercato Liquori,Rome,Lazio,41.8933203,12.4829321
Iyo,Milan,Lombardia,45.4641943,9.1896346
Zur Kaiserkron,Bolzano,Trentino-Alto Adige/Südtirol,46.655945450000004,11.23021287087526
Il Fagiano,Fasano del Garda,Lombardia,,
Il Michelaccio,Genoa,Liguria,44.40726,8.9338624
Trita Pepe,Manoppello Scalo,Abruzzo,42.3069988,14.0611891
AB Osteria Contemporanea,Lavariano,Friuli-Venezia Giulia,45.9553207,13.2264391
Locanda Pincelli,Selva Malvezzi,Emilia-Romagna,44.5559288,11.6271487
Da Giannino - L'Angolo d'Abruzzo,Milan,Lombardia,45.4641943,9.1896346
Wicky's Innovative Japanese Cuisine,Milan,Lombardia,45.4641943,9.1896346
Terrazza Bosquet,Sorrento,Campania,40.624906,14.374836
Il Giardinetto,Mandello del Lario,Lombardia,45.919183,9.319341
Sarti del Gusto,Cagliari,Sardigna/Sardegna,39.2171994,9.113311
FRE,Monforte d'Alba,Piemonte,44.582438,7.969637
Casa Buono,Ventimiglia,Liguria,43.7917623,7.6033131
Lipadusa,Lampedusa,Sicilia,35.511134150000004,12.59629135962961
Osteria del Guà,Bagnolo,Veneto,45.272603,10.8922006
Antica Pesa,Rome,Lazio,41.8933203,12.4829321
Dell'Alba,Piadena,Lombardia,45.1308551,10.3687468
La Fugascina Ristorante,Mergozzo,Piemonte,45.96128,8.4495252
Osteria Ardenga,Diolo,Emilia-Romagna,44.965905,10.1481737
Prato Gaio,Montecalvo Versiggia,Lombardia,44.971268,9.2855415
Capo Santa Chiara,Genoa,Liguria,44.40726,8.9338624
Scrigno del Duomo,Trento,Trentino-Alto Adige/Südtirol,46.1029536,11.12974249416882
L'Ostreria Fratelli Pavesi,Podenzano,Emilia-Romagna,44.956363,9.684967
Osteria la Fontanina,Verona,Veneto,45.442497700000004,10.985737689444763
Kuppelrain,Castelbello,Trentino-Alto Adige/Südtirol,46.628306,10.9017598
Venissa,Mazzorbo,Veneto,45.486291300000005,12.408474410998355
Andrea - Sapori Montani,Palazzolo Acreide,Sicilia,37.061855,14.9041697
La Pineta,Sant'Anna,Lombardia,45.294779,10.5192668
Mistral,Bellagio,Lombardia,45.9872549,9.2613001
Andree,La Spezia,Liguria,44.23836595,9.691232634547537
Il Cortiletto,Toscolano-Maderno,Lombardia,45.6345707,10.609815
I Salotti,Chiusi,Toscana,43.016515,11.9477359
Manuelina,Recco,Liguria,44.3652396,9.1462995
Taverna dei Caldora,Pacentro,Abruzzo,42.0499635,13.9910727
Alla Laguna - Vedova Raddi,Marano Lagunare,Friuli-Venezia Giulia,45.7649931,13.1675011
Parco Gambrinus,San Polo di Piave,Veneto,45.7901075,12.3947754
Ansitz Romani,Termeno sulla Strada del Vino,Trentino-Alto Adige/Südtirol,46.3415121,11.2422716
Osteria Borgo Ronche,Fontanafredda,Friuli-Venezia Giulia,45.9733967,12.5691228
Degli Angeli,Magliano Sabina,Lazio,42.3613571,12.4811695
Il Favri,San Giorgio della Richinvelda,Friuli-Venezia Giulia,46.0453055,12.8679995
Tubladel,Ortisei,Trentino-Alto Adige/Südtirol,46.5752077,11.6721382
Bistrot,Rieti,Lazio,42.41473635,12.885888076510067
Serrae Villa Fiesole,Fiesole,Toscana,43.8066689,11.2930735
Inkiostro,Parma,Emilia-Romagna,44.6952006,10.097986896904466
Don Geppi,Sant' Agnello,Campania,40.630006,14.397136
La Corte,Palazzolo sull'Oglio,Lombardia,45.5990687,9.8849665
Campiello,San Giovanni al Natisone,Friuli-Venezia Giulia,45.9779201,13.4010809
Il Credenziere,Annone Veneto,Veneto,45.79551,12.68422
Osteria Zanchetti,Fossombrone,Marche,43.6907965,12.8126121
Aquariva,Padenghe sul Garda,Lombardia,45.509584,10.506376
Chat Qui Rit,Venice,Veneto,45.4371908,12.3345898
Nugolo,Florence,Toscana,43.7697955,11.2556404
Trattoria da Marino,Serravalle Pistoiese,Toscana,43.9058503,10.8330195
Residenza del Lago,Candia Canavese,Piemonte,45.327755,7.885121
Osteria Mood,San Bartolomeo al Mare,Liguria,43.922924,8.101152
Del Cambio,Turin,Piemonte,45.0677551,7.6824892
Ronchi Rò,Dolegna del Collio,Friuli-Venezia Giulia,46.031323,13.4793349
Makorè,Ferrara,Emilia-Romagna,44.766764249999994,11.827938995640167
Taverna Rovita,Maratea,Basilicata,39.9931029,15.723124
Quartopiano,Rimini,Emilia-Romagna,43.946543250000005,12.630749019254939
Io Osteria Personale,Florence,Toscana,43.7697955,11.2556404
Ca' 7,Bassano del Grappa,Veneto,45.7669109,11.7343469
Da Carla,Gambolò,Lombardia,45.2590302,8.8590602
Braunwirt,Sarentino,Trentino-Alto Adige/Südtirol,46.69535665,11.387392520694535
Mirepuà Food Lab,Cremolino,Piemonte,44.635945,8.585249
Del Fagioli,Florence,Toscana,43.7697955,11.2556404
Moi,Rome,Lazio,41.8933203,12.4829321
